{"type":"FeatureCollection","features":[{"type":"Feature","properties":{"zona":"Complementaria","grupo":"comp","ha":2183},"geometry":{"type":"Polygon","coordinates":[[[-59.49635,-34.46246],[-59.49627,-34.46128],[-59.496,-34.46012],[-59.49579,-34.45956],[-59.49526,-34.45846],[-59.49455,-34.45744],[-59.49369,-34.4565],[-59.48627,-34.44968],[-59.4854,-34.44896],[-59.48486,-34.44859],[-59.48428,-34.44824],[-59.48305,-34.44765],[-59.4824,-34.4474],[-59.48106,-34.44701],[-59.48036,-34.44688],[-59.47906,-34.44672],[-59.478,-34.44574],[-59.47699,-34.445],[-59.47634,-34.44419],[-59.47665,-34.44341],[-59.47729,-34.4414],[-59.47823,-34.43797],[-59.4784,-34.43698],[-59.47859,-34.43526],[-59.4797,-34.43029],[-59.48103,-34.42303],[-59.48113,-34.42186],[-59.48104,-34.42068],[-59.48077,-34.41952],[-59.48057,-34.41896],[-59.48003,-34.41786],[-59.47932,-34.41684],[-59.47891,-34.41636],[-59.47798,-34.41547],[-59.47692,-34.41469],[-59.47634,-34.41434],[-59.47511,-34.41375],[-59.4738,-34.41329],[-59.47312,-34.41311],[-59.47172,-34.41288],[-59.47102,-34.41282],[-59.46959,-34.41281],[-59.46818,-34.41296],[-59.46749,-34.41309],[-59.46614,-34.41346],[-59.46486,-34.41398],[-59.46405,-34.41441],[-59.46624,-34.40726],[-59.46647,-34.40626],[-59.46657,-34.40509],[-59.46649,-34.40391],[-59.46638,-34.40333],[-59.46602,-34.40219],[-59.46548,-34.40109],[-59.46515,-34.40057],[-59.46436,-34.39959],[-59.46343,-34.3987],[-59.46236,-34.39792],[-59.46119,-34.39725],[-59.46056,-34.39697],[-59.45925,-34.39652],[-59.45788,-34.39621],[-59.45647,-34.39605],[-59.45576,-34.39602],[-59.45434,-34.39609],[-59.45363,-34.39619],[-59.45226,-34.39649],[-59.45094,-34.39693],[-59.45031,-34.39721],[-59.44912,-34.39786],[-59.44821,-34.3985],[-59.44244,-34.40304],[-59.44149,-34.40392],[-59.44056,-34.4051],[-59.432,-34.41179],[-59.43105,-34.41267],[-59.43026,-34.41365],[-59.42992,-34.41417],[-59.42937,-34.41525],[-59.42899,-34.41639],[-59.42887,-34.41697],[-59.42877,-34.41815],[-59.42885,-34.41931],[-59.42546,-34.41357],[-59.42477,-34.41257],[-59.42436,-34.41209],[-59.42343,-34.4112],[-59.42236,-34.41042],[-59.42118,-34.40976],[-59.41991,-34.40923],[-59.41857,-34.40885],[-59.41717,-34.40861],[-59.41646,-34.40855],[-59.41504,-34.40854],[-59.41363,-34.40869],[-59.41225,-34.40899],[-59.41094,-34.40943],[-59.41031,-34.40971],[-59.40912,-34.41036],[-59.4084,-34.41085],[-59.40272,-34.41511],[-59.40178,-34.41599],[-59.40136,-34.41647],[-59.40064,-34.41749],[-59.40009,-34.41857],[-59.39988,-34.41914],[-59.39959,-34.42029],[-59.39952,-34.42088],[-59.39951,-34.42206],[-59.39957,-34.42265],[-59.39978,-34.42359],[-59.3995,-34.42448],[-59.39938,-34.42506],[-59.39931,-34.42565],[-59.3993,-34.4268],[-59.3893,-34.43437],[-59.3885,-34.43504],[-59.38763,-34.43597],[-59.38725,-34.43647],[-59.38662,-34.43752],[-59.38627,-34.43831],[-59.38523,-34.43889],[-59.38442,-34.43944],[-59.37299,-34.44817],[-59.37222,-34.44882],[-59.37135,-34.44975],[-59.37063,-34.45077],[-59.37033,-34.4513],[-59.36986,-34.45242],[-59.36958,-34.45357],[-59.3695,-34.45416],[-59.36949,-34.45534],[-59.36956,-34.45592],[-59.36983,-34.45708],[-59.37028,-34.4582],[-59.3709,-34.45926],[-59.37168,-34.46025],[-59.37261,-34.46114],[-59.37368,-34.46192],[-59.37486,-34.46258],[-59.37914,-34.46463],[-59.39268,-34.47165],[-59.39884,-34.47492],[-59.40081,-34.47677],[-59.40132,-34.47718],[-59.40245,-34.4779],[-59.40886,-34.48122],[-59.41058,-34.48206],[-59.41976,-34.48703],[-59.4209,-34.48758],[-59.42222,-34.48803],[-59.42359,-34.48835],[-59.425,-34.48851],[-59.42571,-34.48853],[-59.42713,-34.48846],[-59.42784,-34.48837],[-59.42921,-34.48807],[-59.43053,-34.48762],[-59.43116,-34.48735],[-59.43177,-34.48704],[-59.4327,-34.48647],[-59.43358,-34.48694],[-59.4342,-34.48722],[-59.43551,-34.48768],[-59.43689,-34.48799],[-59.4383,-34.48815],[-59.43972,-34.48816],[-59.44043,-34.4881],[-59.44183,-34.48788],[-59.44318,-34.4875],[-59.44446,-34.48699],[-59.44565,-34.48634],[-59.44655,-34.48571],[-59.45043,-34.48266],[-59.45138,-34.48178],[-59.45217,-34.48081],[-59.45322,-34.47915],[-59.4561,-34.47492],[-59.45655,-34.47499],[-59.45812,-34.47828],[-59.45845,-34.4788],[-59.45924,-34.47978],[-59.46017,-34.48067],[-59.46069,-34.48108],[-59.46181,-34.4818],[-59.46241,-34.48212],[-59.46304,-34.4824],[-59.46435,-34.48285],[-59.46573,-34.48316],[-59.46714,-34.48332],[-59.46785,-34.48335],[-59.46927,-34.48328],[-59.47067,-34.48305],[-59.47202,-34.48268],[-59.4733,-34.48216],[-59.47391,-34.48185],[-59.47496,-34.4812],[-59.48051,-34.47726],[-59.48145,-34.47637],[-59.48207,-34.47564],[-59.48328,-34.4753],[-59.48393,-34.47506],[-59.48456,-34.47478],[-59.48575,-34.47413],[-59.49212,-34.46958],[-59.49313,-34.46882],[-59.49407,-34.46793],[-59.49449,-34.46746],[-59.49521,-34.46644],[-59.4955,-34.4659],[-59.49597,-34.46479],[-59.49613,-34.46421],[-59.49633,-34.46304],[-59.49635,-34.46246]]]}},{"type":"Feature","properties":{"zona":"Urbana","grupo":"urb","ha":563},"geometry":{"type":"Polygon","coordinates":[[[-59.47767,-34.43703],[-59.47758,-34.43586],[-59.47731,-34.4347],[-59.47711,-34.43413],[-59.47657,-34.43304],[-59.47624,-34.43252],[-59.47545,-34.43154],[-59.475,-34.43108],[-59.47246,-34.42893],[-59.47142,-34.42817],[-59.47085,-34.42783],[-59.47025,-34.42751],[-59.46897,-34.42699],[-59.46831,-34.42678],[-59.46694,-34.42647],[-59.46553,-34.42631],[-59.46481,-34.42628],[-59.46353,-34.42634],[-59.45157,-34.42753],[-59.44358,-34.4282],[-59.44218,-34.42842],[-59.44058,-34.42888],[-59.43491,-34.42951],[-59.43353,-34.4298],[-59.43286,-34.43001],[-59.43158,-34.43052],[-59.43097,-34.43083],[-59.42984,-34.43155],[-59.42883,-34.43237],[-59.42796,-34.43331],[-59.42758,-34.43381],[-59.42724,-34.43432],[-59.42669,-34.43541],[-59.42628,-34.43663],[-59.42609,-34.4378],[-59.42606,-34.43839],[-59.42615,-34.43955],[-59.42513,-34.4404],[-59.42022,-34.4442],[-59.41973,-34.44463],[-59.41886,-34.44556],[-59.41848,-34.44606],[-59.41814,-34.44658],[-59.4177,-34.44743],[-59.41647,-34.4481],[-59.41483,-34.4493],[-59.41389,-34.45018],[-59.41309,-34.45116],[-59.41275,-34.45168],[-59.4122,-34.45277],[-59.41182,-34.4539],[-59.41163,-34.45507],[-59.4116,-34.45566],[-59.41169,-34.45684],[-59.41196,-34.45799],[-59.41241,-34.45911],[-59.41303,-34.46017],[-59.41381,-34.46116],[-59.41456,-34.46189],[-59.41616,-34.4633],[-59.41723,-34.46408],[-59.41796,-34.46451],[-59.41882,-34.46511],[-59.42,-34.46577],[-59.42063,-34.46605],[-59.42194,-34.46651],[-59.42331,-34.46682],[-59.42401,-34.46692],[-59.42543,-34.46701],[-59.42615,-34.46699],[-59.42756,-34.46684],[-59.42825,-34.46671],[-59.43017,-34.46623],[-59.4307,-34.46711],[-59.43107,-34.46762],[-59.43173,-34.46836],[-59.4325,-34.4695],[-59.43336,-34.47044],[-59.43385,-34.47087],[-59.43491,-34.47166],[-59.43609,-34.47232],[-59.43672,-34.4726],[-59.43803,-34.47306],[-59.43941,-34.47337],[-59.44011,-34.47347],[-59.44153,-34.47355],[-59.44295,-34.47348],[-59.44365,-34.47339],[-59.44503,-34.47309],[-59.4457,-34.47288],[-59.44635,-34.47264],[-59.44758,-34.47206],[-59.44817,-34.47172],[-59.44916,-34.47102],[-59.45024,-34.47095],[-59.45095,-34.47086],[-59.45232,-34.47056],[-59.45364,-34.47012],[-59.45488,-34.46953],[-59.45601,-34.46882],[-59.45995,-34.46593],[-59.46087,-34.46516],[-59.46133,-34.46471],[-59.46213,-34.46373],[-59.46247,-34.46321],[-59.46302,-34.46213],[-59.46329,-34.46135],[-59.46441,-34.46032],[-59.4652,-34.45934],[-59.46584,-34.45829],[-59.4663,-34.45717],[-59.46659,-34.45602],[-59.46668,-34.45512],[-59.46714,-34.45434],[-59.4676,-34.45322],[-59.46789,-34.45207],[-59.46796,-34.45148],[-59.46799,-34.45089],[-59.4679,-34.44971],[-59.46763,-34.44856],[-59.46719,-34.44746],[-59.46837,-34.44689],[-59.46895,-34.44655],[-59.46988,-34.44591],[-59.47274,-34.44458],[-59.47387,-34.44386],[-59.47489,-34.44303],[-59.47576,-34.4421],[-59.47614,-34.4416],[-59.47682,-34.44048],[-59.47728,-34.43937],[-59.47745,-34.43879],[-59.47757,-34.43821],[-59.47767,-34.43703]]]}},{"type":"Feature","properties":{"zona":"Complementaria","grupo":"comp","ha":235},"geometry":{"type":"Polygon","coordinates":[[[-59.40345,-34.47209],[-59.40343,-34.4715],[-59.40326,-34.47033],[-59.4029,-34.46918],[-59.40244,-34.46822],[-59.40253,-34.46755],[-59.40253,-34.46637],[-59.40247,-34.46578],[-59.4022,-34.46462],[-59.40175,-34.4635],[-59.40113,-34.46244],[-59.40034,-34.46146],[-59.39941,-34.46057],[-59.39835,-34.45978],[-59.39744,-34.45926],[-59.38575,-34.45321],[-59.38485,-34.45279],[-59.38354,-34.45233],[-59.38217,-34.45202],[-59.38147,-34.45192],[-59.38005,-34.45184],[-59.37862,-34.45191],[-59.37792,-34.452],[-59.37654,-34.4523],[-59.37523,-34.45274],[-59.37399,-34.45333],[-59.37285,-34.45404],[-59.37184,-34.45487],[-59.37097,-34.4558],[-59.3683,-34.45936],[-59.36796,-34.45987],[-59.3674,-34.46096],[-59.36703,-34.4621],[-59.36683,-34.46327],[-59.36681,-34.46385],[-59.36685,-34.46471],[-59.36499,-34.4673],[-59.3647,-34.46784],[-59.3643,-34.46876],[-59.36338,-34.46952],[-59.36251,-34.47045],[-59.36094,-34.4725],[-59.3606,-34.47302],[-59.36004,-34.47411],[-59.35967,-34.47524],[-59.35947,-34.47641],[-59.35946,-34.47759],[-59.35964,-34.47876],[-59.36,-34.4799],[-59.36054,-34.48099],[-59.36087,-34.48151],[-59.36165,-34.4825],[-59.36258,-34.48339],[-59.3631,-34.4838],[-59.36445,-34.48464],[-59.37341,-34.48941],[-59.37442,-34.48988],[-59.37573,-34.49034],[-59.37711,-34.49065],[-59.37781,-34.49075],[-59.37923,-34.49084],[-59.38061,-34.49081],[-59.38203,-34.49066],[-59.38272,-34.49053],[-59.38397,-34.49019],[-59.38546,-34.49028],[-59.38617,-34.49027],[-59.38758,-34.49012],[-59.38896,-34.48982],[-59.39028,-34.48938],[-59.39091,-34.4891],[-59.39151,-34.48879],[-59.39265,-34.48808],[-59.39317,-34.48768],[-59.39412,-34.4868],[-59.39472,-34.48608],[-59.40177,-34.47685],[-59.4023,-34.47607],[-59.40286,-34.47498],[-59.40323,-34.47384],[-59.40335,-34.47326],[-59.40345,-34.47209]]]}},{"type":"Feature","properties":{"zona":"Complementaria L","grupo":"comp","ha":367},"geometry":{"type":"Polygon","coordinates":[[[-59.29557,-34.43413],[-59.29555,-34.43354],[-59.29538,-34.43237],[-59.29502,-34.43123],[-59.29448,-34.43013],[-59.29415,-34.42961],[-59.29378,-34.42911],[-59.29292,-34.42817],[-59.29192,-34.42733],[-59.2908,-34.4266],[-59.2902,-34.42629],[-59.28957,-34.42601],[-59.28826,-34.42555],[-59.28758,-34.42537],[-59.28633,-34.42514],[-59.28641,-34.42418],[-59.28632,-34.42301],[-59.28621,-34.42242],[-59.28585,-34.42128],[-59.28532,-34.42019],[-59.28499,-34.41967],[-59.28461,-34.41916],[-59.28376,-34.41822],[-59.28276,-34.41738],[-59.28221,-34.41701],[-59.28129,-34.41647],[-59.27628,-34.41388],[-59.27501,-34.41336],[-59.27366,-34.41297],[-59.27227,-34.41273],[-59.27085,-34.41264],[-59.26943,-34.41271],[-59.26803,-34.41293],[-59.26668,-34.41331],[-59.2654,-34.41382],[-59.26421,-34.41447],[-59.26319,-34.41519],[-59.25713,-34.41223],[-59.25582,-34.41177],[-59.25514,-34.41159],[-59.25375,-34.41135],[-59.25233,-34.41127],[-59.25091,-34.41134],[-59.25021,-34.41143],[-59.24883,-34.41173],[-59.24751,-34.41217],[-59.24627,-34.41275],[-59.24514,-34.41346],[-59.24461,-34.41386],[-59.24367,-34.41474],[-59.24288,-34.4157],[-59.23984,-34.41997],[-59.2392,-34.42102],[-59.23873,-34.42214],[-59.23844,-34.42329],[-59.23834,-34.42447],[-59.23842,-34.42564],[-59.23853,-34.42623],[-59.23889,-34.42737],[-59.23942,-34.42846],[-59.24013,-34.42949],[-59.24077,-34.43021],[-59.23994,-34.43193],[-59.23973,-34.43249],[-59.23944,-34.43365],[-59.23937,-34.43423],[-59.23934,-34.43482],[-59.23942,-34.436],[-59.23953,-34.43658],[-59.23989,-34.43772],[-59.24167,-34.44159],[-59.24203,-34.44229],[-59.24421,-34.44545],[-59.24467,-34.44747],[-59.24503,-34.44861],[-59.24557,-34.4497],[-59.24627,-34.45073],[-59.24668,-34.45121],[-59.24761,-34.4521],[-59.24867,-34.45288],[-59.24925,-34.45323],[-59.25048,-34.45383],[-59.25179,-34.45429],[-59.25247,-34.45446],[-59.25386,-34.4547],[-59.2552,-34.45479],[-59.25671,-34.45505],[-59.25813,-34.45514],[-59.25924,-34.4551],[-59.26023,-34.45537],[-59.26093,-34.45551],[-59.26234,-34.45567],[-59.26376,-34.45568],[-59.26517,-34.45553],[-59.26655,-34.45524],[-59.26787,-34.45479],[-59.26911,-34.45421],[-59.27024,-34.4535],[-59.27125,-34.45267],[-59.27213,-34.45174],[-59.27251,-34.45124],[-59.27358,-34.44959],[-59.27481,-34.4501],[-59.27616,-34.45049],[-59.27755,-34.45073],[-59.27897,-34.45082],[-59.28039,-34.45075],[-59.28179,-34.45052],[-59.28314,-34.45015],[-59.28442,-34.44964],[-59.28503,-34.44933],[-59.28616,-34.44862],[-59.28669,-34.44822],[-59.28763,-34.44734],[-59.28834,-34.44649],[-59.29401,-34.43872],[-59.29471,-34.43757],[-59.29518,-34.43646],[-59.29547,-34.4353],[-59.29557,-34.43413]]]}},{"type":"Feature","properties":{"zona":"Urba Loc","grupo":"urb","ha":57},"geometry":{"type":"Polygon","coordinates":[[[-59.3611,-34.45793],[-59.36181,-34.45791],[-59.36322,-34.45777],[-59.3646,-34.45747],[-59.36527,-34.45727],[-59.36655,-34.45675],[-59.36715,-34.45644],[-59.36845,-34.45562],[-59.36966,-34.45527],[-59.37031,-34.45503],[-59.37155,-34.45444],[-59.37213,-34.4541],[-59.37308,-34.45343],[-59.37779,-34.44969],[-59.37874,-34.44881],[-59.37915,-34.44833],[-59.37987,-34.44731],[-59.38017,-34.44678],[-59.38064,-34.44566],[-59.38092,-34.44451],[-59.381,-34.44392],[-59.38103,-34.44333],[-59.38094,-34.44216],[-59.38067,-34.441],[-59.38047,-34.44043],[-59.38022,-34.43988],[-59.3796,-34.43882],[-59.37923,-34.43831],[-59.37837,-34.43737],[-59.37789,-34.43694],[-59.37682,-34.43616],[-59.37625,-34.43581],[-59.37502,-34.43522],[-59.37437,-34.43497],[-59.37303,-34.43458],[-59.37163,-34.43435],[-59.37092,-34.43429],[-59.36657,-34.43415],[-59.36246,-34.43417],[-59.36117,-34.43424],[-59.35999,-34.43441],[-59.35862,-34.4341],[-59.35721,-34.43394],[-59.35336,-34.4339],[-59.35194,-34.43397],[-59.35124,-34.43406],[-59.34986,-34.43436],[-59.34854,-34.4348],[-59.34731,-34.43539],[-59.34617,-34.4361],[-59.34516,-34.43693],[-59.34429,-34.43786],[-59.34245,-34.44045],[-59.3419,-34.44154],[-59.34152,-34.44268],[-59.3414,-34.44326],[-59.3413,-34.44443],[-59.34138,-34.44561],[-59.34149,-34.44619],[-59.34185,-34.44734],[-59.34239,-34.44843],[-59.34309,-34.44945],[-59.34395,-34.45039],[-59.34495,-34.45123],[-59.34607,-34.45196],[-59.34695,-34.4524],[-59.35129,-34.45437],[-59.35527,-34.45649],[-59.35629,-34.45698],[-59.3576,-34.45743],[-59.35898,-34.45775],[-59.35968,-34.45785],[-59.3611,-34.45793]]]}},{"type":"Feature","properties":{"zona":"Complementaria L","grupo":"comp","ha":402},"geometry":{"type":"Polygon","coordinates":[[[-59.39259,-34.44254],[-59.3925,-34.44137],[-59.39223,-34.44021],[-59.39178,-34.43909],[-59.39116,-34.43803],[-59.39038,-34.43705],[-59.38945,-34.43615],[-59.38838,-34.43537],[-59.38781,-34.43502],[-59.38673,-34.4345],[-59.387,-34.43339],[-59.38708,-34.43281],[-59.38708,-34.43163],[-59.38702,-34.43104],[-59.38675,-34.42988],[-59.38655,-34.42932],[-59.38601,-34.42822],[-59.38568,-34.4277],[-59.38489,-34.42672],[-59.38445,-34.42626],[-59.38203,-34.42423],[-59.38091,-34.42351],[-59.38031,-34.42319],[-59.37968,-34.42291],[-59.37837,-34.42246],[-59.377,-34.42214],[-59.37629,-34.42204],[-59.37488,-34.42196],[-59.37345,-34.42203],[-59.37275,-34.42212],[-59.37138,-34.42242],[-59.37071,-34.42262],[-59.36943,-34.42314],[-59.36824,-34.42379],[-59.36398,-34.4269],[-59.3631,-34.42661],[-59.36173,-34.42629],[-59.36032,-34.42613],[-59.35889,-34.42613],[-59.35819,-34.42618],[-59.35679,-34.4264],[-59.35544,-34.42677],[-59.35416,-34.42729],[-59.35355,-34.4276],[-59.3527,-34.42811],[-59.35166,-34.42801],[-59.35061,-34.42799],[-59.34946,-34.42774],[-59.34876,-34.42764],[-59.34734,-34.42755],[-59.34663,-34.42757],[-59.34522,-34.42772],[-59.34384,-34.42801],[-59.34252,-34.42846],[-59.34128,-34.42904],[-59.33897,-34.43051],[-59.33803,-34.43119],[-59.33708,-34.43207],[-59.33629,-34.43305],[-59.33565,-34.4341],[-59.33518,-34.43521],[-59.3349,-34.43637],[-59.33482,-34.43696],[-59.33479,-34.43755],[-59.33484,-34.43841],[-59.33434,-34.43941],[-59.33413,-34.43997],[-59.33384,-34.44113],[-59.33376,-34.44172],[-59.33374,-34.4423],[-59.33382,-34.44348],[-59.33409,-34.44464],[-59.33442,-34.44549],[-59.33402,-34.44618],[-59.33355,-34.4473],[-59.33326,-34.44845],[-59.33316,-34.44963],[-59.33324,-34.45081],[-59.33351,-34.45196],[-59.33396,-34.45308],[-59.33447,-34.45398],[-59.3343,-34.45507],[-59.33429,-34.45625],[-59.33446,-34.45742],[-59.33482,-34.45856],[-59.33507,-34.45911],[-59.33569,-34.46017],[-59.33606,-34.46068],[-59.33692,-34.46162],[-59.3374,-34.46205],[-59.33847,-34.46283],[-59.34072,-34.46417],[-59.34143,-34.46492],[-59.34204,-34.46546],[-59.3427,-34.46626],[-59.34363,-34.46715],[-59.34469,-34.46793],[-59.34584,-34.46861],[-59.34707,-34.46921],[-59.34838,-34.46967],[-59.34975,-34.46998],[-59.35046,-34.47008],[-59.35188,-34.47016],[-59.3533,-34.47009],[-59.354,-34.47],[-59.35538,-34.4697],[-59.3567,-34.46926],[-59.35793,-34.46868],[-59.35907,-34.46796],[-59.36008,-34.46714],[-59.36054,-34.46668],[-59.36133,-34.46571],[-59.36379,-34.46223],[-59.36519,-34.46196],[-59.36662,-34.46229],[-59.36803,-34.46245],[-59.36946,-34.46245],[-59.37087,-34.46231],[-59.37225,-34.46201],[-59.37357,-34.46157],[-59.3748,-34.46098],[-59.37594,-34.46027],[-59.37646,-34.45987],[-59.37741,-34.45899],[-59.37918,-34.45679],[-59.38914,-34.44907],[-59.38984,-34.44847],[-59.3903,-34.44802],[-59.3911,-34.44704],[-59.39144,-34.44653],[-59.39199,-34.44544],[-59.39237,-34.4443],[-59.39249,-34.44372],[-59.39259,-34.44254]]]}},{"type":"Feature","properties":{"zona":"Urba Loc","grupo":"urb","ha":73},"geometry":{"type":"Polygon","coordinates":[[[-59.25854,-34.45015],[-59.25996,-34.45008],[-59.26066,-34.44999],[-59.26204,-34.44969],[-59.26336,-34.44925],[-59.2646,-34.44867],[-59.26573,-34.44796],[-59.26626,-34.44756],[-59.2672,-34.44667],[-59.26787,-34.44588],[-59.27481,-34.43661],[-59.27528,-34.43591],[-59.27583,-34.43482],[-59.27605,-34.43426],[-59.27633,-34.4331],[-59.27644,-34.43193],[-59.27635,-34.43075],[-59.27609,-34.42959],[-59.27588,-34.42903],[-59.27535,-34.42793],[-59.27502,-34.42741],[-59.27424,-34.42643],[-59.27331,-34.42553],[-59.27279,-34.42513],[-59.27167,-34.4244],[-59.26464,-34.42092],[-59.26401,-34.42064],[-59.2627,-34.42018],[-59.26133,-34.41987],[-59.26039,-34.41974],[-59.25891,-34.41921],[-59.25754,-34.41889],[-59.25613,-34.41873],[-59.25542,-34.41871],[-59.254,-34.41878],[-59.2526,-34.419],[-59.25192,-34.41916],[-59.2506,-34.41961],[-59.24997,-34.41988],[-59.24936,-34.42019],[-59.24822,-34.4209],[-59.24721,-34.42173],[-59.24675,-34.42218],[-59.24612,-34.42294],[-59.24306,-34.42698],[-59.24256,-34.42772],[-59.24226,-34.42825],[-59.24179,-34.42937],[-59.2415,-34.43052],[-59.2414,-34.4317],[-59.24148,-34.43288],[-59.24159,-34.43346],[-59.24195,-34.4346],[-59.24248,-34.43569],[-59.24316,-34.43668],[-59.24327,-34.43728],[-59.24363,-34.43842],[-59.24419,-34.43957],[-59.24427,-34.4405],[-59.24438,-34.44108],[-59.24474,-34.44222],[-59.24528,-34.44331],[-59.24561,-34.44383],[-59.24598,-34.44434],[-59.24684,-34.44528],[-59.24784,-34.44612],[-59.24896,-34.44684],[-59.25374,-34.44919],[-59.25505,-34.44965],[-59.25642,-34.44996],[-59.25712,-34.45006],[-59.25854,-34.45015]]]}},{"type":"Feature","properties":{"zona":"Complementaria L","grupo":"comp","ha":349},"geometry":{"type":"Polygon","coordinates":[[[-59.31762,-34.4968],[-59.37004,-34.52396],[-59.37151,-34.52339],[-59.3727,-34.52274],[-59.37377,-34.52197],[-59.37472,-34.52109],[-59.38032,-34.51408],[-59.38095,-34.51302],[-59.38142,-34.51191],[-59.38171,-34.51075],[-59.38181,-34.50958],[-59.38172,-34.5084],[-59.38161,-34.50782],[-59.38125,-34.50668],[-59.38072,-34.50558],[-59.38001,-34.50456],[-59.37915,-34.50362],[-59.37815,-34.50278],[-59.37702,-34.50206],[-59.37004,-34.49852],[-59.36861,-34.49791],[-59.36794,-34.4977],[-59.3666,-34.49739],[-59.36774,-34.49658],[-59.36869,-34.4957],[-59.3691,-34.49522],[-59.36982,-34.49421],[-59.37012,-34.49367],[-59.37059,-34.49256],[-59.37075,-34.49198],[-59.37095,-34.49081],[-59.37098,-34.49023],[-59.37089,-34.48905],[-59.37062,-34.48789],[-59.37042,-34.48733],[-59.37017,-34.48677],[-59.36955,-34.48571],[-59.36877,-34.48473],[-59.36784,-34.48384],[-59.36677,-34.48305],[-59.36619,-34.48271],[-59.35963,-34.47916],[-59.35835,-34.47864],[-59.35701,-34.47825],[-59.35561,-34.47801],[-59.35419,-34.47793],[-59.35277,-34.478],[-59.35137,-34.47822],[-59.35069,-34.47839],[-59.34937,-34.47883],[-59.34813,-34.47941],[-59.34706,-34.48009],[-59.34587,-34.48015],[-59.34447,-34.48038],[-59.34312,-34.48075],[-59.34184,-34.48126],[-59.34123,-34.48157],[-59.3401,-34.48228],[-59.33957,-34.48268],[-59.33863,-34.48357],[-59.33208,-34.49171],[-59.33072,-34.49216],[-59.3296,-34.49192],[-59.32819,-34.49175],[-59.32748,-34.49173],[-59.32606,-34.4918],[-59.32466,-34.49202],[-59.32331,-34.49239],[-59.32266,-34.49263],[-59.32142,-34.49322],[-59.32029,-34.49393],[-59.31976,-34.49433],[-59.31927,-34.49476],[-59.3184,-34.49569],[-59.31762,-34.4968]]]}},{"type":"Feature","properties":{"zona":"Urba Loc","grupo":"urb","ha":20},"geometry":{"type":"Polygon","coordinates":[[[-59.32494,-34.506],[-59.32502,-34.50718],[-59.32513,-34.50776],[-59.32549,-34.5089],[-59.32603,-34.50999],[-59.32636,-34.51052],[-59.32714,-34.5115],[-59.32807,-34.51239],[-59.32859,-34.5128],[-59.32914,-34.51318],[-59.33016,-34.51376],[-59.33493,-34.51617],[-59.33621,-34.51669],[-59.33755,-34.51708],[-59.33895,-34.51732],[-59.34037,-34.5174],[-59.34108,-34.51739],[-59.34179,-34.51733],[-59.34319,-34.51711],[-59.34387,-34.51694],[-59.34519,-34.5165],[-59.34582,-34.51622],[-59.34701,-34.51558],[-59.34757,-34.5152],[-59.34858,-34.51438],[-59.34945,-34.51345],[-59.35071,-34.51178],[-59.35142,-34.51117],[-59.3523,-34.51024],[-59.35302,-34.50922],[-59.35357,-34.50814],[-59.35395,-34.507],[-59.35414,-34.50583],[-59.35415,-34.50465],[-59.35409,-34.50407],[-59.35382,-34.50291],[-59.35337,-34.50179],[-59.35308,-34.50125],[-59.35275,-34.50073],[-59.35196,-34.49974],[-59.35151,-34.49929],[-59.35051,-34.49845],[-59.34997,-34.49807],[-59.3491,-34.49757],[-59.34806,-34.4968],[-59.34748,-34.49645],[-59.34547,-34.49542],[-59.34419,-34.49489],[-59.34353,-34.49468],[-59.34215,-34.49436],[-59.34074,-34.4942],[-59.33932,-34.49419],[-59.33791,-34.49434],[-59.33721,-34.49447],[-59.33653,-34.49464],[-59.33465,-34.49524],[-59.33337,-34.49575],[-59.33276,-34.49606],[-59.33162,-34.49677],[-59.3311,-34.49717],[-59.32769,-34.50007],[-59.32681,-34.501],[-59.32643,-34.5015],[-59.32579,-34.50256],[-59.32533,-34.50367],[-59.32504,-34.50482],[-59.32494,-34.506]]]}},{"type":"Feature","properties":{"zona":"Urba Loc","grupo":"urb","ha":47},"geometry":{"type":"Polygon","coordinates":[[[-59.39037,-34.36465],[-59.39029,-34.36347],[-59.39018,-34.36289],[-59.38982,-34.36175],[-59.38928,-34.36066],[-59.38858,-34.35963],[-59.38772,-34.35869],[-59.38391,-34.35535],[-59.38284,-34.35456],[-59.38227,-34.35422],[-59.38104,-34.35362],[-59.37973,-34.35316],[-59.37905,-34.35299],[-59.37766,-34.35275],[-59.37518,-34.35261],[-59.37376,-34.3526],[-59.37235,-34.35275],[-59.37098,-34.35305],[-59.37031,-34.35325],[-59.36903,-34.35377],[-59.36784,-34.35442],[-59.36677,-34.35519],[-59.36419,-34.35758],[-59.36377,-34.35805],[-59.36311,-34.35897],[-59.3618,-34.36108],[-59.3612,-34.36229],[-59.36045,-34.36321],[-59.35981,-34.36427],[-59.35956,-34.36482],[-59.35918,-34.36595],[-59.35906,-34.36653],[-59.35896,-34.36771],[-59.35904,-34.36889],[-59.35922,-34.36974],[-59.35915,-34.37069],[-59.35924,-34.37187],[-59.35951,-34.37303],[-59.35971,-34.37359],[-59.36024,-34.37469],[-59.36058,-34.37521],[-59.36136,-34.37619],[-59.36229,-34.37708],[-59.36331,-34.37791],[-59.36443,-34.37863],[-59.36566,-34.37923],[-59.3663,-34.37948],[-59.36697,-34.37969],[-59.36834,-34.38],[-59.36904,-34.3801],[-59.37046,-34.38018],[-59.37188,-34.38011],[-59.37258,-34.38002],[-59.37359,-34.37982],[-59.37517,-34.37967],[-59.37655,-34.37937],[-59.37786,-34.37892],[-59.37849,-34.37865],[-59.37968,-34.378],[-59.38076,-34.37723],[-59.38139,-34.37666],[-59.38809,-34.37013],[-59.38889,-34.36915],[-59.38922,-34.36863],[-59.38978,-34.36755],[-59.39015,-34.36641],[-59.39027,-34.36583],[-59.39037,-34.36465]]]}},{"type":"Feature","properties":{"zona":"Complementaria L","grupo":"comp","ha":599},"geometry":{"type":"Polygon","coordinates":[[[-59.39186,-34.37532],[-59.39178,-34.37415],[-59.39151,-34.37299],[-59.39106,-34.37187],[-59.39077,-34.37133],[-59.39007,-34.37031],[-59.38584,-34.36527],[-59.38626,-34.36442],[-59.38664,-34.36328],[-59.38683,-34.36211],[-59.38684,-34.36093],[-59.38678,-34.36034],[-59.38651,-34.35919],[-59.38606,-34.35807],[-59.38544,-34.35701],[-59.38465,-34.35602],[-59.38421,-34.35556],[-59.37764,-34.34983],[-59.37572,-34.34729],[-59.37224,-34.34157],[-59.37161,-34.34066],[-59.3712,-34.34018],[-59.37027,-34.33929],[-59.36975,-34.33888],[-59.36863,-34.33816],[-59.3674,-34.33756],[-59.36609,-34.3371],[-59.36472,-34.33679],[-59.36331,-34.33663],[-59.36189,-34.33662],[-59.36048,-34.33677],[-59.35911,-34.33707],[-59.35779,-34.33751],[-59.35655,-34.3381],[-59.35525,-34.33893],[-59.33963,-34.35065],[-59.33914,-34.35107],[-59.33826,-34.35201],[-59.33755,-34.35302],[-59.33699,-34.35411],[-59.33662,-34.35525],[-59.3365,-34.35583],[-59.33639,-34.357],[-59.33641,-34.35759],[-59.33659,-34.35876],[-59.33675,-34.35934],[-59.33695,-34.3599],[-59.33748,-34.361],[-59.33819,-34.36202],[-59.33904,-34.36296],[-59.34076,-34.36451],[-59.34091,-34.36538],[-59.34106,-34.36595],[-59.34155,-34.36716],[-59.34148,-34.36812],[-59.3415,-34.36871],[-59.34168,-34.36988],[-59.34204,-34.37102],[-59.34257,-34.37211],[-59.3429,-34.37264],[-59.34328,-34.37314],[-59.34413,-34.37408],[-59.35381,-34.38318],[-59.35487,-34.38396],[-59.35594,-34.38456],[-59.36185,-34.38988],[-59.36262,-34.3905],[-59.36374,-34.39123],[-59.36497,-34.39182],[-59.36628,-34.39228],[-59.36765,-34.39259],[-59.36906,-34.39275],[-59.37048,-34.39276],[-59.3719,-34.39261],[-59.37327,-34.39232],[-59.37459,-34.39187],[-59.37583,-34.39129],[-59.37641,-34.39095],[-59.37716,-34.39043],[-59.38438,-34.38498],[-59.38863,-34.38168],[-59.38958,-34.3808],[-59.39038,-34.37982],[-59.39071,-34.3793],[-59.39127,-34.37822],[-59.39164,-34.37708],[-59.39176,-34.3765],[-59.39186,-34.37532]]]}},{"type":"Feature","properties":{"zona":"Complementaria L","grupo":"comp","ha":147},"geometry":{"type":"Polygon","coordinates":[[[-59.32768,-34.30297],[-59.32766,-34.30238],[-59.32748,-34.30121],[-59.32712,-34.30006],[-59.32659,-34.29897],[-59.32589,-34.29795],[-59.32548,-34.29747],[-59.32466,-34.29667],[-59.31924,-34.29198],[-59.31818,-34.2912],[-59.317,-34.29053],[-59.31573,-34.29001],[-59.31439,-34.28962],[-59.313,-34.28938],[-59.31158,-34.2893],[-59.31016,-34.28937],[-59.30877,-34.28959],[-59.30742,-34.28996],[-59.30614,-34.29047],[-59.30553,-34.29078],[-59.30495,-34.29112],[-59.304,-34.29179],[-59.29503,-34.29891],[-59.29408,-34.29979],[-59.29336,-34.30066],[-59.28912,-34.30226],[-59.28788,-34.30284],[-59.28675,-34.30356],[-59.28623,-34.30396],[-59.28574,-34.30438],[-59.28486,-34.30531],[-59.28414,-34.30633],[-59.28359,-34.30742],[-59.28321,-34.30855],[-59.28309,-34.30913],[-59.28299,-34.31031],[-59.28307,-34.31149],[-59.28334,-34.31265],[-59.28379,-34.31377],[-59.28424,-34.31461],[-59.28441,-34.31571],[-59.28457,-34.31629],[-59.28502,-34.31741],[-59.28563,-34.31847],[-59.28601,-34.31897],[-59.28642,-34.31945],[-59.28716,-34.32018],[-59.2924,-34.32481],[-59.29346,-34.32559],[-59.29463,-34.32626],[-59.29526,-34.32654],[-59.29657,-34.327],[-59.29794,-34.32731],[-59.29935,-34.32747],[-59.30006,-34.3275],[-59.30148,-34.32743],[-59.30287,-34.3272],[-59.30422,-34.32683],[-59.3055,-34.32632],[-59.30611,-34.32601],[-59.30724,-34.3253],[-59.31358,-34.32013],[-59.31698,-34.31747],[-59.31793,-34.31658],[-59.31872,-34.31561],[-59.31906,-34.31509],[-59.31961,-34.314],[-59.31999,-34.31287],[-59.3202,-34.31147],[-59.32156,-34.31102],[-59.32218,-34.31074],[-59.32337,-34.31009],[-59.32445,-34.30932],[-59.32493,-34.30889],[-59.32581,-34.30796],[-59.32619,-34.30746],[-59.32682,-34.30641],[-59.32729,-34.3053],[-59.32758,-34.30414],[-59.32768,-34.30297]]]}},{"type":"Feature","properties":{"zona":"Complementaria L","grupo":"comp","ha":249},"geometry":{"type":"Polygon","coordinates":[[[-59.30624,-34.28023],[-59.30919,-34.2871],[-59.31072,-34.28918],[-59.30209,-34.29407],[-59.30262,-34.29471],[-59.30355,-34.2956],[-59.31152,-34.30203],[-59.31264,-34.30275],[-59.31324,-34.30306],[-59.31451,-34.30359],[-59.31586,-34.30398],[-59.31725,-34.30422],[-59.31795,-34.30428],[-59.32354,-34.30457],[-59.32485,-34.30457],[-59.32626,-34.30442],[-59.32703,-34.30427],[-59.32805,-34.30449],[-59.32876,-34.30459],[-59.33192,-34.30491],[-59.33263,-34.30493],[-59.33404,-34.30487],[-59.33475,-34.30477],[-59.33612,-34.30448],[-59.33744,-34.30403],[-59.33807,-34.30376],[-59.33925,-34.30311],[-59.34631,-34.29796],[-59.34723,-34.2972],[-59.34811,-34.29627],[-59.34882,-34.29525],[-59.34912,-34.29471],[-59.34959,-34.2936],[-59.34987,-34.29244],[-59.34995,-34.29186],[-59.34996,-34.29068],[-59.34978,-34.28951],[-59.34942,-34.28837],[-59.34888,-34.28724],[-59.34807,-34.28585],[-59.34695,-34.28425],[-59.34579,-34.28286],[-59.34457,-34.28161],[-59.34303,-34.28027],[-59.34164,-34.27923],[-59.33997,-34.27816],[-59.33841,-34.27731],[-59.33641,-34.27639],[-59.33453,-34.27569],[-59.33278,-34.27516],[-59.33063,-34.27466],[-59.3288,-34.27437],[-59.32695,-34.27418],[-59.32489,-34.27409],[-59.32308,-34.27413],[-59.32128,-34.27426],[-59.31949,-34.2745],[-59.31747,-34.2749],[-59.31569,-34.27537],[-59.31396,-34.27594],[-59.31228,-34.27661],[-59.31066,-34.27738],[-59.30911,-34.27824],[-59.30764,-34.27919],[-59.30624,-34.28023]]]}},{"type":"Feature","properties":{"zona":"Urba Loc","grupo":"urb","ha":42},"geometry":{"type":"Polygon","coordinates":[[[-59.32585,-34.30974],[-59.32656,-34.30973],[-59.32797,-34.30958],[-59.32935,-34.30929],[-59.33066,-34.30884],[-59.33129,-34.30857],[-59.3319,-34.30826],[-59.33303,-34.30755],[-59.33909,-34.3031],[-59.34001,-34.30234],[-59.34088,-34.30141],[-59.3416,-34.30039],[-59.34215,-34.2993],[-59.34253,-34.29817],[-59.34272,-34.297],[-59.34275,-34.29641],[-59.34273,-34.29582],[-59.34256,-34.29465],[-59.3424,-34.29407],[-59.34195,-34.29296],[-59.34166,-34.29242],[-59.34096,-34.29139],[-59.3401,-34.29045],[-59.33962,-34.29002],[-59.33878,-34.28938],[-59.33837,-34.28881],[-59.33751,-34.28787],[-59.33703,-34.28744],[-59.33596,-34.28666],[-59.33479,-34.286],[-59.33416,-34.28571],[-59.33286,-34.28526],[-59.33149,-34.28494],[-59.33008,-34.28478],[-59.32937,-34.28476],[-59.32866,-34.28477],[-59.32725,-34.28492],[-59.32605,-34.28517],[-59.32062,-34.2866],[-59.31898,-34.28651],[-59.31756,-34.28658],[-59.31686,-34.28667],[-59.31549,-34.28697],[-59.31417,-34.28742],[-59.31293,-34.288],[-59.3118,-34.28871],[-59.31128,-34.28911],[-59.31034,-34.28999],[-59.30954,-34.29097],[-59.3092,-34.29149],[-59.30865,-34.29257],[-59.30827,-34.29371],[-59.30807,-34.29488],[-59.30805,-34.29547],[-59.30813,-34.29664],[-59.3084,-34.2978],[-59.30885,-34.29892],[-59.30946,-34.29998],[-59.30984,-34.30049],[-59.31069,-34.30143],[-59.3162,-34.3061],[-59.31726,-34.30688],[-59.31784,-34.30723],[-59.32105,-34.30879],[-59.32236,-34.30925],[-59.32373,-34.30956],[-59.32443,-34.30966],[-59.32585,-34.30974]]]}},{"type":"Feature","properties":{"zona":"Urba Loc","grupo":"urb","ha":8},"geometry":{"type":"Polygon","coordinates":[[[-59.56553,-34.47524],[-59.56695,-34.47517],[-59.56835,-34.47494],[-59.56903,-34.47477],[-59.57035,-34.47433],[-59.57097,-34.47405],[-59.57216,-34.4734],[-59.57271,-34.47303],[-59.57342,-34.47247],[-59.57768,-34.4688],[-59.57844,-34.46807],[-59.57923,-34.4671],[-59.57957,-34.46658],[-59.58012,-34.46549],[-59.58033,-34.46493],[-59.58062,-34.46377],[-59.58069,-34.46318],[-59.58071,-34.46259],[-59.58063,-34.46142],[-59.58051,-34.46083],[-59.58015,-34.45969],[-59.57961,-34.4586],[-59.57928,-34.45808],[-59.57891,-34.45758],[-59.57804,-34.45664],[-59.57756,-34.45621],[-59.57649,-34.45543],[-59.57531,-34.45477],[-59.57469,-34.45449],[-59.57337,-34.45403],[-59.57269,-34.45386],[-59.5713,-34.45362],[-59.57059,-34.45356],[-59.56488,-34.45354],[-59.56347,-34.45369],[-59.56209,-34.45399],[-59.56142,-34.4542],[-59.56015,-34.45471],[-59.55954,-34.45502],[-59.55841,-34.45574],[-59.55739,-34.45657],[-59.55652,-34.4575],[-59.55614,-34.458],[-59.55551,-34.45905],[-59.55505,-34.46017],[-59.55476,-34.46133],[-59.55469,-34.46191],[-59.55471,-34.46677],[-59.55489,-34.46794],[-59.55525,-34.46908],[-59.55579,-34.47018],[-59.55612,-34.4707],[-59.55691,-34.47168],[-59.55784,-34.47257],[-59.55891,-34.47335],[-59.56009,-34.47401],[-59.56136,-34.47454],[-59.56271,-34.47492],[-59.56411,-34.47516],[-59.56553,-34.47524]]]}},{"type":"Feature","properties":{"zona":"Complementaria L","grupo":"comp","ha":35},"geometry":{"type":"Polygon","coordinates":[[[-59.57767,-34.46769],[-59.57759,-34.46651],[-59.57732,-34.46535],[-59.57686,-34.46424],[-59.5763,-34.46326],[-59.57627,-34.46201],[-59.5762,-34.46142],[-59.57593,-34.46026],[-59.57548,-34.45915],[-59.57486,-34.45809],[-59.57407,-34.4571],[-59.57362,-34.45664],[-59.57314,-34.45621],[-59.57207,-34.45543],[-59.57089,-34.45477],[-59.56962,-34.45425],[-59.56827,-34.45386],[-59.56758,-34.45373],[-59.56617,-34.45357],[-59.56545,-34.45354],[-59.5594,-34.45367],[-59.55869,-34.45372],[-59.5573,-34.45395],[-59.55595,-34.45432],[-59.5553,-34.45456],[-59.55406,-34.45515],[-59.55293,-34.45586],[-59.55055,-34.45775],[-59.54961,-34.45863],[-59.54881,-34.45961],[-59.54848,-34.46012],[-59.54793,-34.46121],[-59.54755,-34.46235],[-59.54736,-34.46352],[-59.54735,-34.4647],[-59.54753,-34.46587],[-59.54783,-34.46693],[-59.54829,-34.46812],[-59.54891,-34.46935],[-59.54968,-34.47052],[-59.55061,-34.47166],[-59.55145,-34.47251],[-59.5525,-34.47341],[-59.55372,-34.47427],[-59.55503,-34.47504],[-59.55647,-34.47572],[-59.55769,-34.47618],[-59.55911,-34.4766],[-59.56065,-34.47693],[-59.56226,-34.47714],[-59.5639,-34.47722],[-59.56547,-34.47717],[-59.56715,-34.47698],[-59.56863,-34.47669],[-59.57024,-34.47624],[-59.57162,-34.47573],[-59.5728,-34.47517],[-59.57393,-34.47445],[-59.57445,-34.47405],[-59.5754,-34.47317],[-59.57619,-34.47219],[-59.57683,-34.47114],[-59.57729,-34.47002],[-59.57758,-34.46887],[-59.57767,-34.46769]]]}},{"type":"Feature","properties":{"zona":"Urba Loc","grupo":"urb","ha":6},"geometry":{"type":"Polygon","coordinates":[[[-59.68823,-34.51968],[-59.68809,-34.51756],[-59.68798,-34.51698],[-59.68762,-34.51584],[-59.68707,-34.51475],[-59.68674,-34.51423],[-59.68637,-34.51373],[-59.6855,-34.51279],[-59.68502,-34.51236],[-59.68395,-34.51158],[-59.68277,-34.51092],[-59.68214,-34.51064],[-59.68082,-34.51018],[-59.68014,-34.51001],[-59.67945,-34.50987],[-59.67804,-34.50972],[-59.67697,-34.5097],[-59.67084,-34.50985],[-59.66977,-34.50992],[-59.66906,-34.51001],[-59.66769,-34.51031],[-59.66637,-34.51076],[-59.66574,-34.51104],[-59.66455,-34.51169],[-59.66348,-34.51246],[-59.66254,-34.51335],[-59.66174,-34.51433],[-59.6614,-34.51484],[-59.66085,-34.51593],[-59.66048,-34.51707],[-59.66029,-34.51824],[-59.66026,-34.51883],[-59.66032,-34.52038],[-59.66039,-34.52096],[-59.66066,-34.52212],[-59.66087,-34.52269],[-59.66141,-34.52378],[-59.66212,-34.5248],[-59.66253,-34.52528],[-59.66347,-34.52617],[-59.66453,-34.52695],[-59.66511,-34.5273],[-59.66634,-34.52789],[-59.66766,-34.52834],[-59.66834,-34.52852],[-59.66974,-34.52875],[-59.67044,-34.52881],[-59.67156,-34.52883],[-59.6777,-34.52866],[-59.67873,-34.52859],[-59.67943,-34.52849],[-59.68081,-34.52819],[-59.68213,-34.52775],[-59.68336,-34.52716],[-59.68449,-34.52644],[-59.68502,-34.52604],[-59.68596,-34.52516],[-59.68675,-34.52418],[-59.68739,-34.52312],[-59.68785,-34.52201],[-59.68813,-34.52085],[-59.68823,-34.51968]]]}},{"type":"Feature","properties":{"zona":"DBC","grupo":"dbc","ha":68},"geometry":{"type":"Polygon","coordinates":[[[-59.28071,-34.47773],[-59.30208,-34.48882],[-59.30377,-34.48646],[-59.30512,-34.48601],[-59.30636,-34.48542],[-59.3075,-34.48471],[-59.30802,-34.48431],[-59.30897,-34.48343],[-59.30972,-34.48252],[-59.31398,-34.47662],[-59.31432,-34.47611],[-59.31487,-34.47502],[-59.31508,-34.47446],[-59.31537,-34.4733],[-59.31544,-34.47271],[-59.31545,-34.47154],[-59.31539,-34.47095],[-59.31512,-34.46979],[-59.31467,-34.46867],[-59.31405,-34.46761],[-59.31327,-34.46663],[-59.31234,-34.46573],[-59.31127,-34.46495],[-59.3107,-34.4646],[-59.30654,-34.46241],[-59.30591,-34.46213],[-59.3046,-34.46167],[-59.30323,-34.46135],[-59.30253,-34.46125],[-59.30111,-34.46117],[-59.3004,-34.46118],[-59.29969,-34.46124],[-59.29829,-34.46146],[-59.29694,-34.46183],[-59.29566,-34.46235],[-59.29501,-34.46267],[-59.29386,-34.46293],[-59.29319,-34.46314],[-59.29191,-34.46365],[-59.2913,-34.46396],[-59.29017,-34.46467],[-59.28915,-34.4655],[-59.28828,-34.46643],[-59.2879,-34.46693],[-59.28487,-34.47153],[-59.28457,-34.47207],[-59.28415,-34.47305],[-59.28071,-34.47773]]]}},{"type":"Feature","properties":{"zona":"Urba Loc","grupo":"urb","ha":17},"geometry":{"type":"Polygon","coordinates":[[[-59.61934,-34.604],[-59.63219,-34.61499],[-59.64352,-34.60546],[-59.64283,-34.60446],[-59.64196,-34.60352],[-59.63863,-34.60065],[-59.63756,-34.59987],[-59.63637,-34.59921],[-59.63575,-34.59893],[-59.63443,-34.59847],[-59.63305,-34.59816],[-59.63164,-34.59801],[-59.63022,-34.598],[-59.6288,-34.59815],[-59.62742,-34.59845],[-59.6261,-34.5989],[-59.62547,-34.59918],[-59.62428,-34.59983],[-59.62325,-34.60057],[-59.62021,-34.60307],[-59.61934,-34.604]]]}}]}