{"type":"FeatureCollection","features":[{"type":"Feature","properties":{"id":"GI-001","act":"Horno","tipo":"X","zona":"R","partida":"094010354","tpa":"Rural","fund":"Horno (ladrillería): actividad intensiva no ganadera. No integra el régimen GI2.","obs":[],"nPar":1},"geometry":{"type":"Point","coordinates":[-59.391206,-34.436828]}},{"type":"Feature","properties":{"id":"GI-002","act":"Feedlot","tipo":"C","zona":"R","partida":"094000731","tpa":"Rural","fund":"Fuera de las zonas del Tipo B, dentro del anillo de 1.000 m que las rodea (zona R).","obs":[],"nPar":1},"geometry":{"type":"Point","coordinates":[-59.397201,-34.432841]}},{"type":"Feature","properties":{"id":"GI-003","act":"Galpón","tipo":"C","zona":"R","partida":null,"tpa":null,"fund":"Fuera de las zonas del Tipo B, dentro del anillo de 1.000 m que las rodea (zona R).","obs":[],"nPar":9},"geometry":{"type":"Point","coordinates":[-59.398876,-34.432454]}},{"type":"Feature","properties":{"id":"GI-004","act":"Galpón","tipo":"C","zona":"R","partida":"094000589","tpa":"Rural","fund":"Fuera de las zonas del Tipo B, dentro del anillo de 1.000 m que las rodea (zona R).","obs":[],"nPar":2},"geometry":{"type":"Point","coordinates":[-59.386534,-34.444294]}},{"type":"Feature","properties":{"id":"GI-005","act":"Galpón","tipo":"C","zona":"R","partida":"094001827","tpa":"Rural","fund":"Fuera de las zonas del Tipo B, dentro del anillo de 1.000 m que las rodea (zona R).","obs":[],"nPar":4},"geometry":{"type":"Point","coordinates":[-59.383852,-34.447336]}},{"type":"Feature","properties":{"id":"GI-006","act":"Galpón","tipo":"C","zona":"R","partida":"094001827","tpa":"Rural","fund":"Fuera de las zonas del Tipo B, dentro del anillo de 1.000 m que las rodea (zona R).","obs":[],"nPar":4},"geometry":{"type":"Point","coordinates":[-59.384082,-34.446991]}},{"type":"Feature","properties":{"id":"GI-007","act":"Galpón","tipo":"C","zona":"R","partida":"094001827","tpa":"Rural","fund":"Fuera de las zonas del Tipo B, dentro del anillo de 1.000 m que las rodea (zona R).","obs":[],"nPar":4},"geometry":{"type":"Point","coordinates":[-59.384619,-34.446964]}},{"type":"Feature","properties":{"id":"GI-008","act":"Feedlot","tipo":"C","zona":"R","partida":"094001827","tpa":"Rural","fund":"Fuera de las zonas del Tipo B, dentro del anillo de 1.000 m que las rodea (zona R).","obs":[],"nPar":4},"geometry":{"type":"Point","coordinates":[-59.385324,-34.449461]}},{"type":"Feature","properties":{"id":"GI-009","act":"Horno","tipo":"X","zona":"R","partida":"094014052","tpa":"Rural","fund":"Horno (ladrillería): actividad intensiva no ganadera. No integra el régimen GI2.","obs":[],"nPar":1},"geometry":{"type":"Point","coordinates":[-59.378814,-34.448827]}},{"type":"Feature","properties":{"id":"GI-010","act":"Galpón","tipo":"A","zona":"R","partida":"094004002","tpa":"Rural","fund":"Dentro del anillo de 1.000 m del Área Urbana.","obs":[],"nPar":3},"geometry":{"type":"Point","coordinates":[-59.372207,-34.451523]}},{"type":"Feature","properties":{"id":"GI-011","act":"Galpón","tipo":"A","zona":"R","partida":"094004002","tpa":"Rural","fund":"Dentro del anillo de 1.000 m del Área Urbana.","obs":[],"nPar":3},"geometry":{"type":"Point","coordinates":[-59.371046,-34.45114]}},{"type":"Feature","properties":{"id":"GI-012","act":"Galpón","tipo":"A","zona":"R","partida":"094004002","tpa":"Rural","fund":"Dentro del anillo de 1.000 m del Área Urbana.","obs":[],"nPar":3},"geometry":{"type":"Point","coordinates":[-59.371137,-34.451584]}},{"type":"Feature","properties":{"id":"GI-013","act":"Galpón","tipo":"C","zona":"R","partida":"094000613","tpa":"Rural","fund":"Fuera de las zonas del Tipo B, dentro del anillo de 1.000 m que las rodea (zona R).","obs":[],"nPar":5},"geometry":{"type":"Point","coordinates":[-59.380357,-34.457049]}},{"type":"Feature","properties":{"id":"GI-014","act":"Galpón","tipo":"C","zona":"R","partida":"094000613","tpa":"Rural","fund":"Fuera de las zonas del Tipo B, dentro del anillo de 1.000 m que las rodea (zona R).","obs":[],"nPar":5},"geometry":{"type":"Point","coordinates":[-59.380574,-34.457229]}},{"type":"Feature","properties":{"id":"GI-015","act":"Galpón","tipo":"C","zona":"R","partida":"094000613","tpa":"Rural","fund":"Fuera de las zonas del Tipo B, dentro del anillo de 1.000 m que las rodea (zona R).","obs":[],"nPar":5},"geometry":{"type":"Point","coordinates":[-59.381083,-34.457229]}},{"type":"Feature","properties":{"id":"GI-016","act":"Galpón","tipo":"C","zona":"R","partida":"094000613","tpa":"Rural","fund":"Fuera de las zonas del Tipo B, dentro del anillo de 1.000 m que las rodea (zona R).","obs":[],"nPar":5},"geometry":{"type":"Point","coordinates":[-59.381161,-34.457692]}},{"type":"Feature","properties":{"id":"GI-017","act":"Galpón","tipo":"C","zona":"R","partida":"094000613","tpa":"Rural","fund":"Fuera de las zonas del Tipo B, dentro del anillo de 1.000 m que las rodea (zona R).","obs":[],"nPar":5},"geometry":{"type":"Point","coordinates":[-59.382095,-34.45841]}},{"type":"Feature","properties":{"id":"GI-018","act":"Galpón","tipo":"C","zona":"R","partida":"094004933","tpa":"Rural","fund":"Fuera de las zonas del Tipo B, dentro del anillo de 1.000 m que las rodea (zona R).","obs":[],"nPar":3},"geometry":{"type":"Point","coordinates":[-59.382709,-34.458377]}},{"type":"Feature","properties":{"id":"GI-019","act":"Galpón","tipo":"C","zona":"R","partida":"094004933","tpa":"Rural","fund":"Fuera de las zonas del Tipo B, dentro del anillo de 1.000 m que las rodea (zona R).","obs":[],"nPar":3},"geometry":{"type":"Point","coordinates":[-59.382762,-34.458845]}},{"type":"Feature","properties":{"id":"GI-020","act":"Galpón","tipo":"C","zona":"R","partida":"094004933","tpa":"Rural","fund":"Fuera de las zonas del Tipo B, dentro del anillo de 1.000 m que las rodea (zona R).","obs":[],"nPar":3},"geometry":{"type":"Point","coordinates":[-59.383641,-34.457792]}},{"type":"Feature","properties":{"id":"GI-021","act":"Galpón","tipo":"C","zona":"R","partida":"094004787","tpa":"Rural","fund":"Fuera de las zonas del Tipo B, dentro del anillo de 1.000 m que las rodea (zona R).","obs":[],"nPar":1},"geometry":{"type":"Point","coordinates":[-59.383126,-34.457874]}},{"type":"Feature","properties":{"id":"GI-022","act":"Feedlot","tipo":"C","zona":"R","partida":"094004125","tpa":"Rural","fund":"Fuera de las zonas del Tipo B, dentro del anillo de 1.000 m que las rodea (zona R).","obs":[],"nPar":2},"geometry":{"type":"Point","coordinates":[-59.371577,-34.456696]}},{"type":"Feature","properties":{"id":"GI-023","act":"Galpón","tipo":"C","zona":"R","partida":"094001457","tpa":"Rural","fund":"Fuera de las zonas del Tipo B, dentro del anillo de 1.000 m que las rodea (zona R).","obs":[],"nPar":1},"geometry":{"type":"Point","coordinates":[-59.378233,-34.456267]}},{"type":"Feature","properties":{"id":"GI-024","act":"Galpón","tipo":"C","zona":"R","partida":"094000804","tpa":"Rural","fund":"Fuera de las zonas del Tipo B, dentro del anillo de 1.000 m que las rodea (zona R).","obs":[],"nPar":1},"geometry":{"type":"Point","coordinates":[-59.358189,-34.463179]}},{"type":"Feature","properties":{"id":"GI-025","act":"Galpón","tipo":"C","zona":"R","partida":"094009156","tpa":"Rural","fund":"Fuera de las zonas del Tipo B, dentro del anillo de 1.000 m que las rodea (zona R).","obs":[],"nPar":5},"geometry":{"type":"Point","coordinates":[-59.371804,-34.474509]}},{"type":"Feature","properties":{"id":"GI-026","act":"Galpón","tipo":"C","zona":"R","partida":"094009156","tpa":"Rural","fund":"Fuera de las zonas del Tipo B, dentro del anillo de 1.000 m que las rodea (zona R).","obs":[],"nPar":5},"geometry":{"type":"Point","coordinates":[-59.371579,-34.474179]}},{"type":"Feature","properties":{"id":"GI-027","act":"Galpón","tipo":"C","zona":"R","partida":"094009156","tpa":"Rural","fund":"Fuera de las zonas del Tipo B, dentro del anillo de 1.000 m que las rodea (zona R).","obs":[],"nPar":5},"geometry":{"type":"Point","coordinates":[-59.371349,-34.473967]}},{"type":"Feature","properties":{"id":"GI-028","act":"Galpón","tipo":"C","zona":"R","partida":"094009156","tpa":"Rural","fund":"Fuera de las zonas del Tipo B, dentro del anillo de 1.000 m que las rodea (zona R).","obs":[],"nPar":5},"geometry":{"type":"Point","coordinates":[-59.370986,-34.473848]}},{"type":"Feature","properties":{"id":"GI-029","act":"Galpón","tipo":"C","zona":"R","partida":"094009156","tpa":"Rural","fund":"Fuera de las zonas del Tipo B, dentro del anillo de 1.000 m que las rodea (zona R).","obs":[],"nPar":5},"geometry":{"type":"Point","coordinates":[-59.370713,-34.473777]}},{"type":"Feature","properties":{"id":"GI-030","act":"Galpón","tipo":"C","zona":"R","partida":"094004890","tpa":"Urbano","fund":"Fuera de las zonas del Tipo B, dentro del anillo de 1.000 m que las rodea (zona R).","obs":[],"nPar":4},"geometry":{"type":"Point","coordinates":[-59.375727,-34.482276]}},{"type":"Feature","properties":{"id":"GI-031","act":"Galpón","tipo":"C","zona":"R","partida":"094004890","tpa":"Urbano","fund":"Fuera de las zonas del Tipo B, dentro del anillo de 1.000 m que las rodea (zona R).","obs":[],"nPar":4},"geometry":{"type":"Point","coordinates":[-59.375539,-34.482572]}},{"type":"Feature","properties":{"id":"GI-032","act":"Galpón","tipo":"C","zona":"R","partida":"094004890","tpa":"Urbano","fund":"Fuera de las zonas del Tipo B, dentro del anillo de 1.000 m que las rodea (zona R).","obs":[],"nPar":4},"geometry":{"type":"Point","coordinates":[-59.375019,-34.482829]}},{"type":"Feature","properties":{"id":"GI-033","act":"Galpón","tipo":"C","zona":"R","partida":"094004890","tpa":"Urbano","fund":"Fuera de las zonas del Tipo B, dentro del anillo de 1.000 m que las rodea (zona R).","obs":[],"nPar":4},"geometry":{"type":"Point","coordinates":[-59.375126,-34.483138]}},{"type":"Feature","properties":{"id":"GI-034","act":"Galpón","tipo":"C","zona":"R","partida":"094009217","tpa":"Rural","fund":"Fuera de las zonas del Tipo B, dentro del anillo de 1.000 m que las rodea (zona R).","obs":[],"nPar":3},"geometry":{"type":"Point","coordinates":[-59.373522,-34.481361]}},{"type":"Feature","properties":{"id":"GI-035","act":"Galpón","tipo":"C","zona":"R","partida":"094009217","tpa":"Rural","fund":"Fuera de las zonas del Tipo B, dentro del anillo de 1.000 m que las rodea (zona R).","obs":[],"nPar":3},"geometry":{"type":"Point","coordinates":[-59.373463,-34.481715]}},{"type":"Feature","properties":{"id":"GI-036","act":"Galpón","tipo":"C","zona":"R","partida":"094009217","tpa":"Rural","fund":"Fuera de las zonas del Tipo B, dentro del anillo de 1.000 m que las rodea (zona R).","obs":[],"nPar":3},"geometry":{"type":"Point","coordinates":[-59.37313,-34.482006]}},{"type":"Feature","properties":{"id":"GI-037","act":"Horno","tipo":"X","zona":"R","partida":"094008022","tpa":"Rural","fund":"Horno (ladrillería): actividad intensiva no ganadera. No integra el régimen GI2.","obs":[],"nPar":1},"geometry":{"type":"Point","coordinates":[-59.360768,-34.484678]}},{"type":"Feature","properties":{"id":"GI-038","act":"Galpón","tipo":"C","zona":"R","partida":"094003646","tpa":"Rural","fund":"Fuera de las zonas del Tipo B, dentro del anillo de 1.000 m que las rodea (zona R).","obs":[],"nPar":3},"geometry":{"type":"Point","coordinates":[-59.376375,-34.451605]}},{"type":"Feature","properties":{"id":"GI-039","act":"Galpón","tipo":"C","zona":"R","partida":"094003646","tpa":"Rural","fund":"Fuera de las zonas del Tipo B, dentro del anillo de 1.000 m que las rodea (zona R).","obs":[],"nPar":3},"geometry":{"type":"Point","coordinates":[-59.375892,-34.451664]}},{"type":"Feature","properties":{"id":"GI-040","act":"Galpón","tipo":"C","zona":"R","partida":"094003646","tpa":"Rural","fund":"Fuera de las zonas del Tipo B, dentro del anillo de 1.000 m que las rodea (zona R).","obs":[],"nPar":3},"geometry":{"type":"Point","coordinates":[-59.375358,-34.451722]}},{"type":"Feature","properties":{"id":"GI-041","act":"Galpón","tipo":"C","zona":"R","partida":"094004125","tpa":"Rural","fund":"Fuera de las zonas del Tipo B, dentro del anillo de 1.000 m que las rodea (zona R).","obs":[],"nPar":2},"geometry":{"type":"Point","coordinates":[-59.375272,-34.453682]}},{"type":"Feature","properties":{"id":"GI-042","act":"Galpón","tipo":"C","zona":"R","partida":"094013694","tpa":"Rural","fund":"Fuera de las zonas del Tipo B, dentro del anillo de 1.000 m que las rodea (zona R).","obs":[],"nPar":5},"geometry":{"type":"Point","coordinates":[-59.359339,-34.489074]}},{"type":"Feature","properties":{"id":"GI-043","act":"Galpón","tipo":"C","zona":"R","partida":"094013694","tpa":"Rural","fund":"Fuera de las zonas del Tipo B, dentro del anillo de 1.000 m que las rodea (zona R).","obs":[],"nPar":5},"geometry":{"type":"Point","coordinates":[-59.358719,-34.488753]}},{"type":"Feature","properties":{"id":"GI-044","act":"Galpón","tipo":"C","zona":"R","partida":"094013694","tpa":"Rural","fund":"Fuera de las zonas del Tipo B, dentro del anillo de 1.000 m que las rodea (zona R).","obs":[],"nPar":5},"geometry":{"type":"Point","coordinates":[-59.357823,-34.488501]}},{"type":"Feature","properties":{"id":"GI-045","act":"Galpón","tipo":"C","zona":"R","partida":"094013694","tpa":"Rural","fund":"Fuera de las zonas del Tipo B, dentro del anillo de 1.000 m que las rodea (zona R).","obs":[],"nPar":5},"geometry":{"type":"Point","coordinates":[-59.357341,-34.488229]}},{"type":"Feature","properties":{"id":"GI-046","act":"Galpón","tipo":"C","zona":"R","partida":"094013694","tpa":"Rural","fund":"Fuera de las zonas del Tipo B, dentro del anillo de 1.000 m que las rodea (zona R).","obs":[],"nPar":5},"geometry":{"type":"Point","coordinates":[-59.359872,-34.489392]}},{"type":"Feature","properties":{"id":"GI-047","act":"Galpón","tipo":"B","zona":"CM-S4","partida":"094000002","tpa":"Rural","fund":"Fuera del anillo urbano y dentro de zona CM-S4, incluida en el Tipo B.","obs":[],"nPar":1},"geometry":{"type":"Point","coordinates":[-59.359526,-34.489814]}},{"type":"Feature","properties":{"id":"GI-048","act":"Horno","tipo":"X","zona":"CM-S4","partida":"094011000","tpa":"Rural","fund":"Horno (ladrillería): actividad intensiva no ganadera. No integra el régimen GI2.","obs":[],"nPar":1},"geometry":{"type":"Point","coordinates":[-59.356561,-34.448253]}},{"type":"Feature","properties":{"id":"GI-049","act":"Horno","tipo":"X","zona":"CM-S4","partida":"094001122","tpa":"Rural","fund":"Horno (ladrillería): actividad intensiva no ganadera. No integra el régimen GI2.","obs":[],"nPar":1},"geometry":{"type":"Point","coordinates":[-59.35426,-34.448275]}},{"type":"Feature","properties":{"id":"GI-050","act":"Galpón","tipo":"A","zona":"CM-S4","partida":"094010764","tpa":"Rural","fund":"Dentro del anillo de 1.000 m del Área Urbana.","obs":[],"nPar":4},"geometry":{"type":"Point","coordinates":[-59.357979,-34.449809]}},{"type":"Feature","properties":{"id":"GI-051","act":"Galpón","tipo":"A","zona":"CM-S4","partida":"094010764","tpa":"Rural","fund":"Dentro del anillo de 1.000 m del Área Urbana.","obs":[],"nPar":4},"geometry":{"type":"Point","coordinates":[-59.357429,-34.449776]}},{"type":"Feature","properties":{"id":"GI-052","act":"Galpón","tipo":"A","zona":"CM-S4","partida":"094010764","tpa":"Rural","fund":"Dentro del anillo de 1.000 m del Área Urbana.","obs":[],"nPar":4},"geometry":{"type":"Point","coordinates":[-59.357346,-34.449942]}},{"type":"Feature","properties":{"id":"GI-053","act":"Galpón","tipo":"A","zona":"CM-S4","partida":"094010764","tpa":"Rural","fund":"Dentro del anillo de 1.000 m del Área Urbana.","obs":[],"nPar":4},"geometry":{"type":"Point","coordinates":[-59.357298,-34.450176]}},{"type":"Feature","properties":{"id":"GI-054","act":"Horno","tipo":"X","zona":"CRA","partida":"094000713","tpa":"Rural","fund":"Horno (ladrillería): actividad intensiva no ganadera. No integra el régimen GI2.","obs":[],"nPar":1},"geometry":{"type":"Point","coordinates":[-59.348239,-34.45423]}},{"type":"Feature","properties":{"id":"GI-055","act":"Galpón","tipo":"C","zona":"R","partida":"094013702","tpa":"Rural","fund":"Fuera de las zonas del Tipo B, dentro del anillo de 1.000 m que las rodea (zona R).","obs":[],"nPar":4},"geometry":{"type":"Point","coordinates":[-59.351255,-34.496369]}},{"type":"Feature","properties":{"id":"GI-056","act":"Galpón","tipo":"C","zona":"R","partida":"094013702","tpa":"Rural","fund":"Fuera de las zonas del Tipo B, dentro del anillo de 1.000 m que las rodea (zona R).","obs":[],"nPar":4},"geometry":{"type":"Point","coordinates":[-59.351754,-34.496285]}},{"type":"Feature","properties":{"id":"GI-057","act":"Galpón","tipo":"C","zona":"R","partida":"094013702","tpa":"Rural","fund":"Fuera de las zonas del Tipo B, dentro del anillo de 1.000 m que las rodea (zona R).","obs":[],"nPar":4},"geometry":{"type":"Point","coordinates":[-59.351244,-34.496683]}},{"type":"Feature","properties":{"id":"GI-058","act":"Galpón","tipo":"C","zona":"R","partida":"094013702","tpa":"Rural","fund":"Fuera de las zonas del Tipo B, dentro del anillo de 1.000 m que las rodea (zona R).","obs":[],"nPar":4},"geometry":{"type":"Point","coordinates":[-59.351078,-34.496913]}},{"type":"Feature","properties":{"id":"GI-059","act":"Galpón","tipo":"B","zona":"SR-S2","partida":"094008441","tpa":"Rural","fund":"Fuera del anillo urbano y dentro de zona SR-S2, incluida en el Tipo B.","obs":[],"nPar":4},"geometry":{"type":"Point","coordinates":[-59.475535,-34.463118]}},{"type":"Feature","properties":{"id":"GI-060","act":"Galpón","tipo":"B","zona":"SR-S2","partida":"094008441","tpa":"Rural","fund":"Fuera del anillo urbano y dentro de zona SR-S2, incluida en el Tipo B.","obs":[],"nPar":4},"geometry":{"type":"Point","coordinates":[-59.475369,-34.463308]}},{"type":"Feature","properties":{"id":"GI-061","act":"Galpón","tipo":"B","zona":"SR-S2","partida":"094008442","tpa":"Rural","fund":"Fuera del anillo urbano y dentro de zona SR-S2, incluida en el Tipo B.","obs":[],"nPar":9},"geometry":{"type":"Point","coordinates":[-59.475165,-34.463463]}},{"type":"Feature","properties":{"id":"GI-062","act":"Galpón","tipo":"B","zona":"SR-S2","partida":"094008442","tpa":"Rural","fund":"Fuera del anillo urbano y dentro de zona SR-S2, incluida en el Tipo B.","obs":[],"nPar":9},"geometry":{"type":"Point","coordinates":[-59.475036,-34.463706]}},{"type":"Feature","properties":{"id":"GI-063","act":"Galpón","tipo":"B","zona":"SR-S2","partida":"094008442","tpa":"Rural","fund":"Fuera del anillo urbano y dentro de zona SR-S2, incluida en el Tipo B.","obs":[],"nPar":9},"geometry":{"type":"Point","coordinates":[-59.474789,-34.463838]}},{"type":"Feature","properties":{"id":"GI-064","act":"Galpón","tipo":"B","zona":"SR-S2","partida":"094008442","tpa":"Rural","fund":"Fuera del anillo urbano y dentro de zona SR-S2, incluida en el Tipo B.","obs":[],"nPar":9},"geometry":{"type":"Point","coordinates":[-59.474645,-34.463993]}},{"type":"Feature","properties":{"id":"GI-065","act":"Galpón","tipo":"B","zona":"SR-S2","partida":"094008441","tpa":"Rural","fund":"Fuera del anillo urbano y dentro de zona SR-S2, incluida en el Tipo B.","obs":[],"nPar":4},"geometry":{"type":"Point","coordinates":[-59.476018,-34.463591]}},{"type":"Feature","properties":{"id":"GI-066","act":"Galpón","tipo":"B","zona":"SR-S2","partida":"094008441","tpa":"Rural","fund":"Fuera del anillo urbano y dentro de zona SR-S2, incluida en el Tipo B.","obs":[],"nPar":4},"geometry":{"type":"Point","coordinates":[-59.475803,-34.463754]}},{"type":"Feature","properties":{"id":"GI-067","act":"Galpón","tipo":"B","zona":"SR-S2","partida":"094008442","tpa":"Rural","fund":"Fuera del anillo urbano y dentro de zona SR-S2, incluida en el Tipo B.","obs":[],"nPar":9},"geometry":{"type":"Point","coordinates":[-59.476029,-34.464378]}},{"type":"Feature","properties":{"id":"GI-068","act":"Galpón","tipo":"B","zona":"SR-S2","partida":"094008442","tpa":"Rural","fund":"Fuera del anillo urbano y dentro de zona SR-S2, incluida en el Tipo B.","obs":[],"nPar":9},"geometry":{"type":"Point","coordinates":[-59.475701,-34.463989]}},{"type":"Feature","properties":{"id":"GI-069","act":"Galpón","tipo":"B","zona":"SR-S2","partida":"094008442","tpa":"Rural","fund":"Fuera del anillo urbano y dentro de zona SR-S2, incluida en el Tipo B.","obs":[],"nPar":9},"geometry":{"type":"Point","coordinates":[-59.475632,-34.464206]}},{"type":"Feature","properties":{"id":"GI-070","act":"Galpón","tipo":"B","zona":"SR-S2","partida":"094008442","tpa":"Rural","fund":"Fuera del anillo urbano y dentro de zona SR-S2, incluida en el Tipo B.","obs":[],"nPar":9},"geometry":{"type":"Point","coordinates":[-59.475374,-34.464409]}},{"type":"Feature","properties":{"id":"GI-071","act":"Galpón","tipo":"B","zona":"SR-S2","partida":"094008442","tpa":"Rural","fund":"Fuera del anillo urbano y dentro de zona SR-S2, incluida en el Tipo B.","obs":[],"nPar":9},"geometry":{"type":"Point","coordinates":[-59.475186,-34.464528]}},{"type":"Feature","properties":{"id":"GI-072","act":"Galpón","tipo":"B","zona":"SR-S2","partida":"094005738","tpa":"Rural","fund":"Fuera del anillo urbano y dentro de zona SR-S2, incluida en el Tipo B.","obs":[],"nPar":5},"geometry":{"type":"Point","coordinates":[-59.477637,-34.460541]}},{"type":"Feature","properties":{"id":"GI-073","act":"Galpón","tipo":"B","zona":"SR-S2","partida":"094005738","tpa":"Rural","fund":"Fuera del anillo urbano y dentro de zona SR-S2, incluida en el Tipo B.","obs":[],"nPar":5},"geometry":{"type":"Point","coordinates":[-59.477889,-34.460497]}},{"type":"Feature","properties":{"id":"GI-074","act":"Galpón","tipo":"B","zona":"SR-S2","partida":"094005738","tpa":"Rural","fund":"Fuera del anillo urbano y dentro de zona SR-S2, incluida en el Tipo B.","obs":[],"nPar":5},"geometry":{"type":"Point","coordinates":[-59.476548,-34.461373]}},{"type":"Feature","properties":{"id":"GI-075","act":"Galpón","tipo":"B","zona":"SR-S2","partida":"094005738","tpa":"Rural","fund":"Fuera del anillo urbano y dentro de zona SR-S2, incluida en el Tipo B.","obs":[],"nPar":5},"geometry":{"type":"Point","coordinates":[-59.475958,-34.461638]}},{"type":"Feature","properties":{"id":"GI-076","act":"Galpón","tipo":"B","zona":"SR-S2","partida":"094005738","tpa":"Rural","fund":"Fuera del anillo urbano y dentro de zona SR-S2, incluida en el Tipo B.","obs":[],"nPar":5},"geometry":{"type":"Point","coordinates":[-59.478243,-34.460364]}},{"type":"Feature","properties":{"id":"GI-077","act":"Galpón","tipo":"B","zona":"SR-S2","partida":"094005750","tpa":"Rural","fund":"Fuera del anillo urbano y dentro de zona SR-S2, incluida en el Tipo B.","obs":[],"nPar":4},"geometry":{"type":"Point","coordinates":[-59.480448,-34.459542]}},{"type":"Feature","properties":{"id":"GI-078","act":"Horno","tipo":"X","zona":"R","partida":"094003530","tpa":"Rural","fund":"Horno (ladrillería): actividad intensiva no ganadera. No integra el régimen GI2.","obs":[],"nPar":1},"geometry":{"type":"Point","coordinates":[-59.479091,-34.45438]}},{"type":"Feature","properties":{"id":"GI-079","act":"Galpón","tipo":"C","zona":"R","partida":"094003536","tpa":"Rural","fund":"Fuera de las zonas del Tipo B, dentro del anillo de 1.000 m que las rodea (zona R).","obs":[],"nPar":2},"geometry":{"type":"Point","coordinates":[-59.481317,-34.455835]}},{"type":"Feature","properties":{"id":"GI-080","act":"Galpón","tipo":"C","zona":"R","partida":"094000101","tpa":"Rural","fund":"Fuera de las zonas del Tipo B, dentro del anillo de 1.000 m que las rodea (zona R).","obs":[],"nPar":2},"geometry":{"type":"Point","coordinates":[-59.481532,-34.456246]}},{"type":"Feature","properties":{"id":"GI-081","act":"Galpón","tipo":"C","zona":"R","partida":"094003536","tpa":"Rural","fund":"Fuera de las zonas del Tipo B, dentro del anillo de 1.000 m que las rodea (zona R).","obs":[],"nPar":2},"geometry":{"type":"Point","coordinates":[-59.481618,-34.455919]}},{"type":"Feature","properties":{"id":"GI-082","act":"Galpón","tipo":"C","zona":"R","partida":"094000101","tpa":"Rural","fund":"Fuera de las zonas del Tipo B, dentro del anillo de 1.000 m que las rodea (zona R).","obs":[],"nPar":2},"geometry":{"type":"Point","coordinates":[-59.482074,-34.455897]}},{"type":"Feature","properties":{"id":"GI-083","act":"Horno","tipo":"X","zona":"R","partida":"094000611","tpa":"Rural","fund":"Horno (ladrillería): actividad intensiva no ganadera. No integra el régimen GI2.","obs":[],"nPar":1},"geometry":{"type":"Point","coordinates":[-59.484258,-34.450654]}},{"type":"Feature","properties":{"id":"GI-084","act":"Galpón","tipo":"A","zona":"R","partida":"094010462","tpa":"Rural","fund":"Dentro del anillo de 1.000 m del Área Urbana.","obs":[],"nPar":2},"geometry":{"type":"Point","coordinates":[-59.470794,-34.437364]}},{"type":"Feature","properties":{"id":"GI-085","act":"Galpón","tipo":"A","zona":"R","partida":"094010462","tpa":"Rural","fund":"Dentro del anillo de 1.000 m del Área Urbana.","obs":[],"nPar":2},"geometry":{"type":"Point","coordinates":[-59.470518,-34.437494]}},{"type":"Feature","properties":{"id":"GI-086","act":"Galpón","tipo":"A","zona":"CRE-S1","partida":"094012472","tpa":"Rural","fund":"Dentro del anillo de 1.000 m del Área Urbana.","obs":[],"nPar":6},"geometry":{"type":"Point","coordinates":[-59.46635,-34.435838]}},{"type":"Feature","properties":{"id":"GI-087","act":"Galpón","tipo":"A","zona":"CRE-S1","partida":"094012472","tpa":"Rural","fund":"Dentro del anillo de 1.000 m del Área Urbana.","obs":[],"nPar":6},"geometry":{"type":"Point","coordinates":[-59.466501,-34.436142]}},{"type":"Feature","properties":{"id":"GI-088","act":"Galpón","tipo":"A","zona":"CRE-S1","partida":"094012472","tpa":"Rural","fund":"Dentro del anillo de 1.000 m del Área Urbana.","obs":[],"nPar":6},"geometry":{"type":"Point","coordinates":[-59.466336,-34.435505]}},{"type":"Feature","properties":{"id":"GI-089","act":"Galpón","tipo":"A","zona":"CRE-S1","partida":"094012472","tpa":"Rural","fund":"Dentro del anillo de 1.000 m del Área Urbana.","obs":[],"nPar":6},"geometry":{"type":"Point","coordinates":[-59.465838,-34.435667]}},{"type":"Feature","properties":{"id":"GI-090","act":"Galpón","tipo":"A","zona":"CRE-S1","partida":"094012472","tpa":"Rural","fund":"Dentro del anillo de 1.000 m del Área Urbana.","obs":[],"nPar":6},"geometry":{"type":"Point","coordinates":[-59.465732,-34.435801]}},{"type":"Feature","properties":{"id":"GI-091","act":"Galpón","tipo":"A","zona":"CRE-S1","partida":"094012472","tpa":"Rural","fund":"Dentro del anillo de 1.000 m del Área Urbana.","obs":[],"nPar":6},"geometry":{"type":"Point","coordinates":[-59.466172,-34.436212]}},{"type":"Feature","properties":{"id":"GI-092","act":"Galpón","tipo":"B","zona":"CAgr-S2","partida":"094000408","tpa":"Rural","fund":"Fuera del anillo urbano y dentro de zona CAgr-S2, incluida en el Tipo B.","obs":[],"nPar":3},"geometry":{"type":"Point","coordinates":[-59.411359,-34.470304]}},{"type":"Feature","properties":{"id":"GI-093","act":"Galpón","tipo":"B","zona":"CAgr-S2","partida":"094000408","tpa":"Rural","fund":"Fuera del anillo urbano y dentro de zona CAgr-S2, incluida en el Tipo B.","obs":[],"nPar":3},"geometry":{"type":"Point","coordinates":[-59.411257,-34.470755]}},{"type":"Feature","properties":{"id":"GI-094","act":"Galpón","tipo":"B","zona":"CAgr-S2","partida":"094000408","tpa":"Rural","fund":"Fuera del anillo urbano y dentro de zona CAgr-S2, incluida en el Tipo B.","obs":[],"nPar":3},"geometry":{"type":"Point","coordinates":[-59.411365,-34.470547]}},{"type":"Feature","properties":{"id":"GI-095","act":"Galpón","tipo":"B","zona":"CAgr-S2","partida":"094002205","tpa":"Rural","fund":"Fuera del anillo urbano y dentro de zona CAgr-S2, incluida en el Tipo B.","obs":[],"nPar":3},"geometry":{"type":"Point","coordinates":[-59.410168,-34.47068]}},{"type":"Feature","properties":{"id":"GI-096","act":"Galpón","tipo":"B","zona":"CAgr-S2","partida":"094000928","tpa":"Urbano","fund":"Fuera del anillo urbano y dentro de zona CAgr-S2, incluida en el Tipo B.","obs":[],"nPar":2},"geometry":{"type":"Point","coordinates":[-59.412926,-34.471281]}},{"type":"Feature","properties":{"id":"GI-097","act":"Galpón","tipo":"B","zona":"CAgr-S2","partida":"094000928","tpa":"Urbano","fund":"Fuera del anillo urbano y dentro de zona CAgr-S2, incluida en el Tipo B.","obs":[],"nPar":2},"geometry":{"type":"Point","coordinates":[-59.412958,-34.471458]}},{"type":"Feature","properties":{"id":"GI-098","act":"Galpón","tipo":"B","zona":"CAgr-S2","partida":"094002205","tpa":"Rural","fund":"Fuera del anillo urbano y dentro de zona CAgr-S2, incluida en el Tipo B.","obs":[],"nPar":3},"geometry":{"type":"Point","coordinates":[-59.410056,-34.470362]}},{"type":"Feature","properties":{"id":"GI-099","act":"Galpón","tipo":"B","zona":"CAgr-S2","partida":"094002205","tpa":"Rural","fund":"Fuera del anillo urbano y dentro de zona CAgr-S2, incluida en el Tipo B.","obs":[],"nPar":3},"geometry":{"type":"Point","coordinates":[-59.409911,-34.470034]}},{"type":"Feature","properties":{"id":"GI-100","act":"Feedlot","tipo":"B","zona":"SR-S3","partida":"094008816","tpa":"Rural","fund":"Fuera del anillo urbano y dentro de zona SR-S3, incluida en el Tipo B.","obs":[],"nPar":1},"geometry":{"type":"Point","coordinates":[-59.406561,-34.466033]}},{"type":"Feature","properties":{"id":"GI-101","act":"Galpón","tipo":"B","zona":"SR-S3","partida":"094008817","tpa":"Rural","fund":"Fuera del anillo urbano y dentro de zona SR-S3, incluida en el Tipo B.","obs":[],"nPar":3},"geometry":{"type":"Point","coordinates":[-59.407834,-34.466031]}},{"type":"Feature","properties":{"id":"GI-102","act":"Galpón","tipo":"B","zona":"SR-S3","partida":"094008817","tpa":"Rural","fund":"Fuera del anillo urbano y dentro de zona SR-S3, incluida en el Tipo B.","obs":[],"nPar":3},"geometry":{"type":"Point","coordinates":[-59.407565,-34.465943]}},{"type":"Feature","properties":{"id":"GI-103","act":"Galpón","tipo":"B","zona":"SR-S3","partida":"094008817","tpa":"Rural","fund":"Fuera del anillo urbano y dentro de zona SR-S3, incluida en el Tipo B.","obs":[],"nPar":3},"geometry":{"type":"Point","coordinates":[-59.407439,-34.466049]}},{"type":"Feature","properties":{"id":"GI-104","act":"Horno","tipo":"X","zona":"CAgr-S2","partida":"094010040","tpa":"Rural","fund":"Horno (ladrillería): actividad intensiva no ganadera. No integra el régimen GI2.","obs":[],"nPar":1},"geometry":{"type":"Point","coordinates":[-59.410434,-34.46702]}},{"type":"Feature","properties":{"id":"GI-105","act":"Galpón","tipo":"B","zona":"SR-S3","partida":"094008798","tpa":"Rural","fund":"Fuera del anillo urbano y dentro de zona SR-S3, incluida en el Tipo B.","obs":[],"nPar":4},"geometry":{"type":"Point","coordinates":[-59.404224,-34.461363]}},{"type":"Feature","properties":{"id":"GI-106","act":"Galpón","tipo":"B","zona":"SR-S3","partida":"094008798","tpa":"Rural","fund":"Fuera del anillo urbano y dentro de zona SR-S3, incluida en el Tipo B.","obs":[],"nPar":4},"geometry":{"type":"Point","coordinates":[-59.403974,-34.461427]}},{"type":"Feature","properties":{"id":"GI-107","act":"Galpón","tipo":"B","zona":"SR-S3","partida":"094008798","tpa":"Rural","fund":"Fuera del anillo urbano y dentro de zona SR-S3, incluida en el Tipo B.","obs":[],"nPar":4},"geometry":{"type":"Point","coordinates":[-59.403669,-34.46142]}},{"type":"Feature","properties":{"id":"GI-108","act":"Galpón","tipo":"B","zona":"SR-S3","partida":"094008798","tpa":"Rural","fund":"Fuera del anillo urbano y dentro de zona SR-S3, incluida en el Tipo B.","obs":[],"nPar":4},"geometry":{"type":"Point","coordinates":[-59.403379,-34.461378]}},{"type":"Feature","properties":{"id":"GI-109","act":"Galpón","tipo":"B","zona":"CM-S2","partida":"094008800","tpa":"Rural","fund":"Fuera del anillo urbano y dentro de zona CM-S2, incluida en el Tipo B.","obs":[],"nPar":6},"geometry":{"type":"Point","coordinates":[-59.403529,-34.460142]}},{"type":"Feature","properties":{"id":"GI-110","act":"Galpón","tipo":"B","zona":"CM-S2","partida":"094008800","tpa":"Rural","fund":"Fuera del anillo urbano y dentro de zona CM-S2, incluida en el Tipo B.","obs":[],"nPar":6},"geometry":{"type":"Point","coordinates":[-59.403588,-34.4596]}},{"type":"Feature","properties":{"id":"GI-111","act":"Galpón","tipo":"B","zona":"CM-S2","partida":"094008800","tpa":"Rural","fund":"Fuera del anillo urbano y dentro de zona CM-S2, incluida en el Tipo B.","obs":[],"nPar":6},"geometry":{"type":"Point","coordinates":[-59.403674,-34.45983]}},{"type":"Feature","properties":{"id":"GI-112","act":"Galpón","tipo":"B","zona":"CM-S2","partida":"094008800","tpa":"Rural","fund":"Fuera del anillo urbano y dentro de zona CM-S2, incluida en el Tipo B.","obs":[],"nPar":6},"geometry":{"type":"Point","coordinates":[-59.402244,-34.459921]}},{"type":"Feature","properties":{"id":"GI-113","act":"Galpón","tipo":"B","zona":"CM-S2","partida":"094008800","tpa":"Rural","fund":"Fuera del anillo urbano y dentro de zona CM-S2, incluida en el Tipo B.","obs":[],"nPar":6},"geometry":{"type":"Point","coordinates":[-59.402019,-34.460206]}},{"type":"Feature","properties":{"id":"GI-114","act":"Galpón","tipo":"B","zona":"CM-S2","partida":"094008800","tpa":"Rural","fund":"Fuera del anillo urbano y dentro de zona CM-S2, incluida en el Tipo B.","obs":[],"nPar":6},"geometry":{"type":"Point","coordinates":[-59.402391,-34.460417]}},{"type":"Feature","properties":{"id":"GI-115","act":"Galpón","tipo":"B","zona":"CM-S2","partida":"094008848","tpa":"Rural","fund":"Fuera del anillo urbano y dentro de zona CM-S2, incluida en el Tipo B.","obs":[],"nPar":2},"geometry":{"type":"Point","coordinates":[-59.407866,-34.459748]}},{"type":"Feature","properties":{"id":"GI-116","act":"Galpón","tipo":"B","zona":"CM-S2","partida":"094008848","tpa":"Rural","fund":"Fuera del anillo urbano y dentro de zona CM-S2, incluida en el Tipo B.","obs":[],"nPar":2},"geometry":{"type":"Point","coordinates":[-59.407737,-34.459983]}},{"type":"Feature","properties":{"id":"GI-117","act":"Galpón","tipo":"A","zona":"R","partida":"094000724","tpa":"Rural","fund":"Dentro del anillo de 1.000 m de un Distrito de Barrio Cerrado.","obs":["El Art. 6º no menciona los anillos de DBC. Se asignó Tipo A por analogía con el uso residencial; requiere criterio de la Autoridad de Aplicación."],"nPar":1},"geometry":{"type":"Point","coordinates":[-59.29957,-34.467962]}},{"type":"Feature","properties":{"id":"GI-118","act":"Galpón","tipo":"C","zona":"R","partida":"094001257","tpa":"Rural","fund":"Fuera de las zonas del Tipo B, dentro del anillo de 1.000 m que las rodea (zona R).","obs":[],"nPar":4},"geometry":{"type":"Point","coordinates":[-59.414629,-34.423914]}},{"type":"Feature","properties":{"id":"GI-119","act":"Galpón","tipo":"C","zona":"R","partida":"094000086","tpa":"Rural","fund":"Fuera de las zonas del Tipo B, dentro del anillo de 1.000 m que las rodea (zona R).","obs":[],"nPar":1},"geometry":{"type":"Point","coordinates":[-59.415515,-34.423507]}},{"type":"Feature","properties":{"id":"GI-120","act":"Galpón","tipo":"C","zona":"R","partida":"094001257","tpa":"Rural","fund":"Fuera de las zonas del Tipo B, dentro del anillo de 1.000 m que las rodea (zona R).","obs":[],"nPar":4},"geometry":{"type":"Point","coordinates":[-59.415198,-34.423555]}},{"type":"Feature","properties":{"id":"GI-121","act":"Galpón","tipo":"C","zona":"R","partida":"094001257","tpa":"Rural","fund":"Fuera de las zonas del Tipo B, dentro del anillo de 1.000 m que las rodea (zona R).","obs":[],"nPar":4},"geometry":{"type":"Point","coordinates":[-59.41479,-34.423591]}},{"type":"Feature","properties":{"id":"GI-122","act":"Galpón","tipo":"C","zona":"R","partida":"094001257","tpa":"Rural","fund":"Fuera de las zonas del Tipo B, dentro del anillo de 1.000 m que las rodea (zona R).","obs":[],"nPar":4},"geometry":{"type":"Point","coordinates":[-59.416292,-34.422561]}},{"type":"Feature","properties":{"id":"GI-123","act":"Galpón","tipo":"C","zona":"R","partida":"094005160","tpa":"Rural","fund":"Fuera de las zonas del Tipo B, dentro del anillo de 1.000 m que las rodea (zona R).","obs":[],"nPar":18},"geometry":{"type":"Point","coordinates":[-59.425764,-34.427807]}},{"type":"Feature","properties":{"id":"GI-124","act":"Galpón","tipo":"C","zona":"R","partida":"094005160","tpa":"Rural","fund":"Fuera de las zonas del Tipo B, dentro del anillo de 1.000 m que las rodea (zona R).","obs":[],"nPar":18},"geometry":{"type":"Point","coordinates":[-59.425504,-34.427944]}},{"type":"Feature","properties":{"id":"GI-125","act":"Galpón","tipo":"C","zona":"R","partida":"094005160","tpa":"Rural","fund":"Fuera de las zonas del Tipo B, dentro del anillo de 1.000 m que las rodea (zona R).","obs":[],"nPar":18},"geometry":{"type":"Point","coordinates":[-59.42537,-34.428145]}},{"type":"Feature","properties":{"id":"GI-126","act":"Galpón","tipo":"C","zona":"R","partida":"094005160","tpa":"Rural","fund":"Fuera de las zonas del Tipo B, dentro del anillo de 1.000 m que las rodea (zona R).","obs":[],"nPar":18},"geometry":{"type":"Point","coordinates":[-59.425024,-34.42815]}},{"type":"Feature","properties":{"id":"GI-127","act":"Galpón","tipo":"C","zona":"R","partida":"094005160","tpa":"Rural","fund":"Fuera de las zonas del Tipo B, dentro del anillo de 1.000 m que las rodea (zona R).","obs":[],"nPar":18},"geometry":{"type":"Point","coordinates":[-59.424643,-34.428163]}},{"type":"Feature","properties":{"id":"GI-128","act":"Galpón","tipo":"C","zona":"R","partida":"094005160","tpa":"Rural","fund":"Fuera de las zonas del Tipo B, dentro del anillo de 1.000 m que las rodea (zona R).","obs":[],"nPar":18},"geometry":{"type":"Point","coordinates":[-59.424353,-34.428187]}},{"type":"Feature","properties":{"id":"GI-129","act":"Galpón","tipo":"C","zona":"R","partida":"094005160","tpa":"Rural","fund":"Fuera de las zonas del Tipo B, dentro del anillo de 1.000 m que las rodea (zona R).","obs":[],"nPar":18},"geometry":{"type":"Point","coordinates":[-59.42868,-34.425547]}},{"type":"Feature","properties":{"id":"GI-130","act":"Galpón","tipo":"C","zona":"R","partida":"094005160","tpa":"Rural","fund":"Fuera de las zonas del Tipo B, dentro del anillo de 1.000 m que las rodea (zona R).","obs":[],"nPar":18},"geometry":{"type":"Point","coordinates":[-59.428449,-34.425671]}},{"type":"Feature","properties":{"id":"GI-131","act":"Galpón","tipo":"C","zona":"R","partida":"094005160","tpa":"Rural","fund":"Fuera de las zonas del Tipo B, dentro del anillo de 1.000 m que las rodea (zona R).","obs":[],"nPar":18},"geometry":{"type":"Point","coordinates":[-59.428307,-34.425868]}},{"type":"Feature","properties":{"id":"GI-132","act":"Galpón","tipo":"C","zona":"R","partida":"094005160","tpa":"Rural","fund":"Fuera de las zonas del Tipo B, dentro del anillo de 1.000 m que las rodea (zona R).","obs":[],"nPar":18},"geometry":{"type":"Point","coordinates":[-59.427929,-34.425857]}},{"type":"Feature","properties":{"id":"GI-133","act":"Galpón","tipo":"C","zona":"R","partida":"094005160","tpa":"Rural","fund":"Fuera de las zonas del Tipo B, dentro del anillo de 1.000 m que las rodea (zona R).","obs":[],"nPar":18},"geometry":{"type":"Point","coordinates":[-59.427698,-34.426065]}},{"type":"Feature","properties":{"id":"GI-134","act":"Galpón","tipo":"C","zona":"R","partida":"094005160","tpa":"Rural","fund":"Fuera de las zonas del Tipo B, dentro del anillo de 1.000 m que las rodea (zona R).","obs":[],"nPar":18},"geometry":{"type":"Point","coordinates":[-59.427572,-34.426233]}},{"type":"Feature","properties":{"id":"GI-135","act":"Galpón","tipo":"C","zona":"R","partida":"094005160","tpa":"Rural","fund":"Fuera de las zonas del Tipo B, dentro del anillo de 1.000 m que las rodea (zona R).","obs":[],"nPar":18},"geometry":{"type":"Point","coordinates":[-59.43154,-34.423256]}},{"type":"Feature","properties":{"id":"GI-136","act":"Galpón","tipo":"C","zona":"R","partida":"094005160","tpa":"Rural","fund":"Fuera de las zonas del Tipo B, dentro del anillo de 1.000 m que las rodea (zona R).","obs":[],"nPar":18},"geometry":{"type":"Point","coordinates":[-59.431052,-34.423167]}},{"type":"Feature","properties":{"id":"GI-137","act":"Galpón","tipo":"C","zona":"R","partida":"094005160","tpa":"Rural","fund":"Fuera de las zonas del Tipo B, dentro del anillo de 1.000 m que las rodea (zona R).","obs":[],"nPar":18},"geometry":{"type":"Point","coordinates":[-59.43118,-34.42361]}},{"type":"Feature","properties":{"id":"GI-138","act":"Galpón","tipo":"C","zona":"R","partida":"094005160","tpa":"Rural","fund":"Fuera de las zonas del Tipo B, dentro del anillo de 1.000 m que las rodea (zona R).","obs":[],"nPar":18},"geometry":{"type":"Point","coordinates":[-59.430805,-34.423659]}},{"type":"Feature","properties":{"id":"GI-139","act":"Galpón","tipo":"C","zona":"R","partida":"094005160","tpa":"Rural","fund":"Fuera de las zonas del Tipo B, dentro del anillo de 1.000 m que las rodea (zona R).","obs":[],"nPar":18},"geometry":{"type":"Point","coordinates":[-59.430735,-34.423897]}},{"type":"Feature","properties":{"id":"GI-140","act":"Galpón","tipo":"C","zona":"R","partida":"094005160","tpa":"Rural","fund":"Fuera de las zonas del Tipo B, dentro del anillo de 1.000 m que las rodea (zona R).","obs":[],"nPar":18},"geometry":{"type":"Point","coordinates":[-59.43059,-34.424136]}},{"type":"Feature","properties":{"id":"GI-141","act":"Galpón","tipo":"C","zona":"R","partida":"094006814","tpa":"Rural","fund":"Fuera de las zonas del Tipo B, dentro del anillo de 1.000 m que las rodea (zona R).","obs":[],"nPar":4},"geometry":{"type":"Point","coordinates":[-59.428,-34.419803]}},{"type":"Feature","properties":{"id":"GI-142","act":"Galpón","tipo":"C","zona":"R","partida":"094006814","tpa":"Rural","fund":"Fuera de las zonas del Tipo B, dentro del anillo de 1.000 m que las rodea (zona R).","obs":[],"nPar":4},"geometry":{"type":"Point","coordinates":[-59.427651,-34.419944]}},{"type":"Feature","properties":{"id":"GI-143","act":"Galpón","tipo":"C","zona":"R","partida":"094006814","tpa":"Rural","fund":"Fuera de las zonas del Tipo B, dentro del anillo de 1.000 m que las rodea (zona R).","obs":[],"nPar":4},"geometry":{"type":"Point","coordinates":[-59.427431,-34.420179]}},{"type":"Feature","properties":{"id":"GI-144","act":"Galpón","tipo":"C","zona":"R","partida":"094006814","tpa":"Rural","fund":"Fuera de las zonas del Tipo B, dentro del anillo de 1.000 m que las rodea (zona R).","obs":[],"nPar":4},"geometry":{"type":"Point","coordinates":[-59.427211,-34.420369]}},{"type":"Feature","properties":{"id":"GI-145","act":"Feedlot","tipo":"C","zona":"R","partida":"094001376","tpa":"Rural","fund":"Fuera de las zonas del Tipo B, dentro del anillo de 1.000 m que las rodea (zona R).","obs":[],"nPar":1},"geometry":{"type":"Point","coordinates":[-59.420269,-34.420652]}},{"type":"Feature","properties":{"id":"GI-146","act":"Galpón","tipo":"C","zona":"R","partida":"094001791","tpa":"Rural","fund":"Fuera de las zonas del Tipo B, dentro del anillo de 1.000 m que las rodea (zona R).","obs":[],"nPar":7},"geometry":{"type":"Point","coordinates":[-59.450451,-34.403255]}},{"type":"Feature","properties":{"id":"GI-147","act":"Galpón","tipo":"C","zona":"R","partida":"094001791","tpa":"Rural","fund":"Fuera de las zonas del Tipo B, dentro del anillo de 1.000 m que las rodea (zona R).","obs":[],"nPar":7},"geometry":{"type":"Point","coordinates":[-59.450891,-34.403353]}},{"type":"Feature","properties":{"id":"GI-148","act":"Galpón","tipo":"C","zona":"R","partida":"094001791","tpa":"Rural","fund":"Fuera de las zonas del Tipo B, dentro del anillo de 1.000 m que las rodea (zona R).","obs":[],"nPar":7},"geometry":{"type":"Point","coordinates":[-59.451079,-34.403083]}},{"type":"Feature","properties":{"id":"GI-149","act":"Galpón","tipo":"C","zona":"R","partida":"094001791","tpa":"Rural","fund":"Fuera de las zonas del Tipo B, dentro del anillo de 1.000 m que las rodea (zona R).","obs":[],"nPar":7},"geometry":{"type":"Point","coordinates":[-59.451299,-34.402976]}},{"type":"Feature","properties":{"id":"GI-150","act":"Galpón","tipo":"C","zona":"R","partida":"094001791","tpa":"Rural","fund":"Fuera de las zonas del Tipo B, dentro del anillo de 1.000 m que las rodea (zona R).","obs":[],"nPar":7},"geometry":{"type":"Point","coordinates":[-59.451417,-34.402709]}},{"type":"Feature","properties":{"id":"GI-151","act":"Galpón","tipo":"C","zona":"R","partida":"094001791","tpa":"Rural","fund":"Fuera de las zonas del Tipo B, dentro del anillo de 1.000 m que las rodea (zona R).","obs":[],"nPar":7},"geometry":{"type":"Point","coordinates":[-59.451492,-34.402412]}},{"type":"Feature","properties":{"id":"GI-152","act":"Galpón","tipo":"C","zona":"R","partida":"094001791","tpa":"Rural","fund":"Fuera de las zonas del Tipo B, dentro del anillo de 1.000 m que las rodea (zona R).","obs":[],"nPar":7},"geometry":{"type":"Point","coordinates":[-59.451535,-34.402113]}},{"type":"Feature","properties":{"id":"GI-153","act":"Galpón","tipo":"C","zona":"R","partida":"094010061","tpa":"Rural","fund":"Fuera de las zonas del Tipo B, dentro del anillo de 1.000 m que las rodea (zona R).","obs":[],"nPar":1},"geometry":{"type":"Point","coordinates":[-59.451594,-34.401772]}},{"type":"Feature","properties":{"id":"GI-154","act":"Galpón","tipo":"C","zona":"R","partida":"094011439","tpa":"Rural","fund":"Fuera de las zonas del Tipo B, dentro del anillo de 1.000 m que las rodea (zona R).","obs":[],"nPar":3},"geometry":{"type":"Point","coordinates":[-59.476984,-34.421191]}},{"type":"Feature","properties":{"id":"GI-155","act":"Galpón","tipo":"C","zona":"R","partida":"094011439","tpa":"Rural","fund":"Fuera de las zonas del Tipo B, dentro del anillo de 1.000 m que las rodea (zona R).","obs":[],"nPar":3},"geometry":{"type":"Point","coordinates":[-59.477834,-34.421874]}},{"type":"Feature","properties":{"id":"GI-156","act":"Galpón","tipo":"C","zona":"R","partida":"094011439","tpa":"Rural","fund":"Fuera de las zonas del Tipo B, dentro del anillo de 1.000 m que las rodea (zona R).","obs":[],"nPar":3},"geometry":{"type":"Point","coordinates":[-59.477526,-34.422065]}},{"type":"Feature","properties":{"id":"GI-157","act":"Galpón","tipo":"C","zona":"RFR","partida":"094001452","tpa":"Rural","fund":"Fuera de las zonas del Tipo B, dentro del anillo de 1.000 m que las rodea (zona RFR).","obs":[],"nPar":1},"geometry":{"type":"Point","coordinates":[-59.475459,-34.422366]}},{"type":"Feature","properties":{"id":"GI-158","act":"Galpón","tipo":"C","zona":"R","partida":null,"tpa":null,"fund":"Fuera de las zonas del Tipo B, dentro del anillo de 1.000 m que las rodea (zona R).","obs":[],"nPar":9},"geometry":{"type":"Point","coordinates":[-59.475743,-34.422176]}},{"type":"Feature","properties":{"id":"GI-159","act":"Galpón","tipo":"C","zona":"R","partida":"094011437","tpa":"Rural","fund":"Fuera de las zonas del Tipo B, dentro del anillo de 1.000 m que las rodea (zona R).","obs":[],"nPar":3},"geometry":{"type":"Point","coordinates":[-59.474554,-34.418695]}},{"type":"Feature","properties":{"id":"GI-160","act":"Galpón","tipo":"C","zona":"R","partida":"094011437","tpa":"Rural","fund":"Fuera de las zonas del Tipo B, dentro del anillo de 1.000 m que las rodea (zona R).","obs":[],"nPar":3},"geometry":{"type":"Point","coordinates":[-59.474323,-34.418887]}},{"type":"Feature","properties":{"id":"GI-161","act":"Galpón","tipo":"C","zona":"R","partida":"094011437","tpa":"Rural","fund":"Fuera de las zonas del Tipo B, dentro del anillo de 1.000 m que las rodea (zona R).","obs":[],"nPar":3},"geometry":{"type":"Point","coordinates":[-59.473613,-34.418666]}},{"type":"Feature","properties":{"id":"GI-162","act":"Galpón","tipo":"C","zona":"RFR","partida":"094001614","tpa":"Rural","fund":"Fuera de las zonas del Tipo B, dentro del anillo de 1.000 m que las rodea (zona RFR).","obs":[],"nPar":8},"geometry":{"type":"Point","coordinates":[-59.469715,-34.420193]}},{"type":"Feature","properties":{"id":"GI-163","act":"Galpón","tipo":"C","zona":"RFR","partida":"094001614","tpa":"Rural","fund":"Fuera de las zonas del Tipo B, dentro del anillo de 1.000 m que las rodea (zona RFR).","obs":[],"nPar":8},"geometry":{"type":"Point","coordinates":[-59.469669,-34.420516]}},{"type":"Feature","properties":{"id":"GI-164","act":"Galpón","tipo":"C","zona":"RFR","partida":"094001614","tpa":"Rural","fund":"Fuera de las zonas del Tipo B, dentro del anillo de 1.000 m que las rodea (zona RFR).","obs":[],"nPar":8},"geometry":{"type":"Point","coordinates":[-59.469611,-34.420816]}},{"type":"Feature","properties":{"id":"GI-165","act":"Galpón","tipo":"C","zona":"RFR","partida":"094001614","tpa":"Rural","fund":"Fuera de las zonas del Tipo B, dentro del anillo de 1.000 m que las rodea (zona RFR).","obs":[],"nPar":8},"geometry":{"type":"Point","coordinates":[-59.469553,-34.421103]}},{"type":"Feature","properties":{"id":"GI-166","act":"Galpón","tipo":"C","zona":"R","partida":"094000589","tpa":"Rural","fund":"Fuera de las zonas del Tipo B, dentro del anillo de 1.000 m que las rodea (zona R).","obs":[],"nPar":2},"geometry":{"type":"Point","coordinates":[-59.386197,-34.44398]}},{"type":"Feature","properties":{"id":"GI-167","act":"Galpón","tipo":"C","zona":"R","partida":"094000655","tpa":"Rural","fund":"Fuera de las zonas del Tipo B, dentro del anillo de 1.000 m que las rodea (zona R).","obs":[],"nPar":4},"geometry":{"type":"Point","coordinates":[-59.385623,-34.44506]}},{"type":"Feature","properties":{"id":"GI-168","act":"Galpón","tipo":"C","zona":"R","partida":"094000655","tpa":"Rural","fund":"Fuera de las zonas del Tipo B, dentro del anillo de 1.000 m que las rodea (zona R).","obs":[],"nPar":4},"geometry":{"type":"Point","coordinates":[-59.381273,-34.444898]}},{"type":"Feature","properties":{"id":"GI-169","act":"Galpón","tipo":"C","zona":"R","partida":"094000655","tpa":"Rural","fund":"Fuera de las zonas del Tipo B, dentro del anillo de 1.000 m que las rodea (zona R).","obs":[],"nPar":4},"geometry":{"type":"Point","coordinates":[-59.381568,-34.44442]}},{"type":"Feature","properties":{"id":"GI-170","act":"Galpón","tipo":"C","zona":"R","partida":"094000655","tpa":"Rural","fund":"Fuera de las zonas del Tipo B, dentro del anillo de 1.000 m que las rodea (zona R).","obs":[],"nPar":4},"geometry":{"type":"Point","coordinates":[-59.381198,-34.444522]}},{"type":"Feature","properties":{"id":"GI-171","act":"Galpón","tipo":"A","zona":"RFR","partida":"094010236","tpa":"Rural","fund":"Dentro del anillo de 1.000 m del Área Urbana.","obs":[],"nPar":5},"geometry":{"type":"Point","coordinates":[-59.557018,-34.463378]}},{"type":"Feature","properties":{"id":"GI-172","act":"Galpón","tipo":"A","zona":"RFR","partida":"094010236","tpa":"Rural","fund":"Dentro del anillo de 1.000 m del Área Urbana.","obs":[],"nPar":5},"geometry":{"type":"Point","coordinates":[-59.556814,-34.463625]}},{"type":"Feature","properties":{"id":"GI-173","act":"Galpón","tipo":"A","zona":"RFR","partida":"094004171","tpa":"Rural","fund":"Dentro del anillo de 1.000 m del Área Urbana.","obs":[],"nPar":1},"geometry":{"type":"Point","coordinates":[-59.55789,-34.463466]}},{"type":"Feature","properties":{"id":"GI-174","act":"Galpón","tipo":"A","zona":"RFR","partida":"094010236","tpa":"Rural","fund":"Dentro del anillo de 1.000 m del Área Urbana.","obs":[],"nPar":5},"geometry":{"type":"Point","coordinates":[-59.557673,-34.463838]}},{"type":"Feature","properties":{"id":"GI-175","act":"Galpón","tipo":"A","zona":"RFR","partida":"094010236","tpa":"Rural","fund":"Dentro del anillo de 1.000 m del Área Urbana.","obs":[],"nPar":5},"geometry":{"type":"Point","coordinates":[-59.557303,-34.463936]}},{"type":"Feature","properties":{"id":"GI-176","act":"Galpón","tipo":"A","zona":"RFR","partida":"094010237","tpa":"Rural","fund":"Dentro del anillo de 1.000 m del Área Urbana.","obs":[],"nPar":1},"geometry":{"type":"Point","coordinates":[-59.556552,-34.464484]}},{"type":"Feature","properties":{"id":"GI-177","act":"Galpón","tipo":"A","zona":"RFR","partida":"094010236","tpa":"Rural","fund":"Dentro del anillo de 1.000 m del Área Urbana.","obs":[],"nPar":5},"geometry":{"type":"Point","coordinates":[-59.556986,-34.464272]}},{"type":"Feature","properties":{"id":"GI-178","act":"Galpón","tipo":"C","zona":"RFR","partida":"094009110","tpa":"Rural","fund":"Fuera de las zonas del Tipo B, dentro del anillo de 1.000 m que las rodea (zona RFR).","obs":[],"nPar":5},"geometry":{"type":"Point","coordinates":[-59.548141,-34.461088]}},{"type":"Feature","properties":{"id":"GI-179","act":"Galpón","tipo":"C","zona":"RFR","partida":"094009110","tpa":"Rural","fund":"Fuera de las zonas del Tipo B, dentro del anillo de 1.000 m que las rodea (zona RFR).","obs":[],"nPar":5},"geometry":{"type":"Point","coordinates":[-59.549331,-34.460832]}},{"type":"Feature","properties":{"id":"GI-180","act":"Galpón","tipo":"C","zona":"RFR","partida":"094009110","tpa":"Rural","fund":"Fuera de las zonas del Tipo B, dentro del anillo de 1.000 m que las rodea (zona RFR).","obs":[],"nPar":5},"geometry":{"type":"Point","coordinates":[-59.549043,-34.460855]}},{"type":"Feature","properties":{"id":"GI-181","act":"Galpón","tipo":"C","zona":"RFR","partida":"094009110","tpa":"Rural","fund":"Fuera de las zonas del Tipo B, dentro del anillo de 1.000 m que las rodea (zona RFR).","obs":[],"nPar":5},"geometry":{"type":"Point","coordinates":[-59.54885,-34.461125]}},{"type":"Feature","properties":{"id":"GI-182","act":"Galpón","tipo":"C","zona":"RFR","partida":"094009110","tpa":"Rural","fund":"Fuera de las zonas del Tipo B, dentro del anillo de 1.000 m que las rodea (zona RFR).","obs":[],"nPar":5},"geometry":{"type":"Point","coordinates":[-59.54952,-34.460714]}},{"type":"Feature","properties":{"id":"GI-183","act":"Galpón","tipo":"C","zona":"R","partida":"094009109","tpa":"Rural","fund":"Fuera de las zonas del Tipo B, dentro del anillo de 1.000 m que las rodea (zona R).","obs":[],"nPar":1},"geometry":{"type":"Point","coordinates":[-59.549599,-34.458973]}},{"type":"Feature","properties":{"id":"GI-184","act":"Galpón","tipo":"C","zona":"RFR","partida":"094010655","tpa":"Rural","fund":"Fuera de las zonas del Tipo B, dentro del anillo de 1.000 m que las rodea (zona RFR).","obs":[],"nPar":6},"geometry":{"type":"Point","coordinates":[-59.44652,-34.479178]}},{"type":"Feature","properties":{"id":"GI-185","act":"Galpón","tipo":"C","zona":"RFR","partida":"094010655","tpa":"Rural","fund":"Fuera de las zonas del Tipo B, dentro del anillo de 1.000 m que las rodea (zona RFR).","obs":[],"nPar":6},"geometry":{"type":"Point","coordinates":[-59.445876,-34.47908]}},{"type":"Feature","properties":{"id":"GI-186","act":"Galpón","tipo":"C","zona":"RFR","partida":"094010655","tpa":"Rural","fund":"Fuera de las zonas del Tipo B, dentro del anillo de 1.000 m que las rodea (zona RFR).","obs":[],"nPar":6},"geometry":{"type":"Point","coordinates":[-59.446048,-34.479576]}},{"type":"Feature","properties":{"id":"GI-187","act":"Galpón","tipo":"C","zona":"RFR","partida":"094010655","tpa":"Rural","fund":"Fuera de las zonas del Tipo B, dentro del anillo de 1.000 m que las rodea (zona RFR).","obs":[],"nPar":6},"geometry":{"type":"Point","coordinates":[-59.445458,-34.478258]}},{"type":"Feature","properties":{"id":"GI-188","act":"Galpón","tipo":"C","zona":"RFR","partida":"094010655","tpa":"Rural","fund":"Fuera de las zonas del Tipo B, dentro del anillo de 1.000 m que las rodea (zona RFR).","obs":[],"nPar":6},"geometry":{"type":"Point","coordinates":[-59.445276,-34.478453]}},{"type":"Feature","properties":{"id":"GI-189","act":"Galpón","tipo":"C","zona":"RFR","partida":"094010655","tpa":"Rural","fund":"Fuera de las zonas del Tipo B, dentro del anillo de 1.000 m que las rodea (zona RFR).","obs":[],"nPar":6},"geometry":{"type":"Point","coordinates":[-59.444911,-34.478576]}},{"type":"Feature","properties":{"id":"GI-190","act":"Galpón","tipo":"B","zona":"SR-S2","partida":"094012217","tpa":"Rural","fund":"Fuera del anillo urbano y dentro de zona SR-S2, incluida en el Tipo B.","obs":[],"nPar":4},"geometry":{"type":"Point","coordinates":[-59.472199,-34.45427]}},{"type":"Feature","properties":{"id":"GI-191","act":"Galpón","tipo":"B","zona":"SR-S2","partida":"094012217","tpa":"Rural","fund":"Fuera del anillo urbano y dentro de zona SR-S2, incluida en el Tipo B.","obs":[],"nPar":4},"geometry":{"type":"Point","coordinates":[-59.471223,-34.454155]}},{"type":"Feature","properties":{"id":"GI-192","act":"Galpón","tipo":"B","zona":"SR-S2","partida":"094012217","tpa":"Rural","fund":"Fuera del anillo urbano y dentro de zona SR-S2, incluida en el Tipo B.","obs":[],"nPar":4},"geometry":{"type":"Point","coordinates":[-59.471352,-34.454527]}},{"type":"Feature","properties":{"id":"GI-193","act":"Galpón","tipo":"B","zona":"SR-S2","partida":"094012217","tpa":"Rural","fund":"Fuera del anillo urbano y dentro de zona SR-S2, incluida en el Tipo B.","obs":[],"nPar":4},"geometry":{"type":"Point","coordinates":[-59.471137,-34.454721]}},{"type":"Feature","properties":{"id":"GI-194","act":"Galpón","tipo":"C","zona":"R","partida":"094000361","tpa":"Rural","fund":"Fuera de las zonas del Tipo B, dentro del anillo de 1.000 m que las rodea (zona R).","obs":[],"nPar":1},"geometry":{"type":"Point","coordinates":[-59.463871,-34.416227]}},{"type":"Feature","properties":{"id":"GI-195","act":"Galpón","tipo":"C","zona":"R","partida":"094001042","tpa":"Rural","fund":"Fuera de las zonas del Tipo B, dentro del anillo de 1.000 m que las rodea (zona R).","obs":[],"nPar":2},"geometry":{"type":"Point","coordinates":[-59.46341,-34.416538]}},{"type":"Feature","properties":{"id":"GI-196","act":"Galpón","tipo":"C","zona":"R","partida":"094001042","tpa":"Rural","fund":"Fuera de las zonas del Tipo B, dentro del anillo de 1.000 m que las rodea (zona R).","obs":[],"nPar":2},"geometry":{"type":"Point","coordinates":[-59.463578,-34.416711]}},{"type":"Feature","properties":{"id":"GI-197","act":"Galpón","tipo":"B","zona":"CAgr-S2","partida":"094005492","tpa":"Rural","fund":"Fuera del anillo urbano y dentro de zona CAgr-S2, incluida en el Tipo B.","obs":["El punto cae fuera de parcela (probablemente sobre calle o camino). Se tomó la parcela más cercana."],"nPar":2},"geometry":{"type":"Point","coordinates":[-59.390281,-34.471642]}},{"type":"Feature","properties":{"id":"GI-198","act":"Galpón","tipo":"B","zona":"CAgr-S2","partida":"094009221","tpa":"Rural","fund":"Fuera del anillo urbano y dentro de zona CAgr-S2, incluida en el Tipo B.","obs":[],"nPar":2},"geometry":{"type":"Point","coordinates":[-59.390329,-34.472045]}},{"type":"Feature","properties":{"id":"GI-199","act":"Galpón","tipo":"B","zona":"CAgr-S2","partida":"094005492","tpa":"Rural","fund":"Fuera del anillo urbano y dentro de zona CAgr-S2, incluida en el Tipo B.","obs":[],"nPar":2},"geometry":{"type":"Point","coordinates":[-59.390114,-34.471231]}},{"type":"Feature","properties":{"id":"GI-200","act":"Galpón","tipo":"B","zona":"CAgr-S2","partida":"094009221","tpa":"Rural","fund":"Fuera del anillo urbano y dentro de zona CAgr-S2, incluida en el Tipo B.","obs":[],"nPar":2},"geometry":{"type":"Point","coordinates":[-59.390286,-34.472399]}},{"type":"Feature","properties":{"id":"GI-201","act":"Galpón","tipo":"B","zona":"CAgr-S2","partida":"094009222","tpa":"Rural","fund":"Fuera del anillo urbano y dentro de zona CAgr-S2, incluida en el Tipo B.","obs":[],"nPar":1},"geometry":{"type":"Point","coordinates":[-59.390152,-34.472774]}},{"type":"Feature","properties":{"id":"GI-202","act":"Galpón","tipo":"B","zona":"CAgr-S2","partida":null,"tpa":null,"fund":"Fuera del anillo urbano y dentro de zona CAgr-S2, incluida en el Tipo B.","obs":[],"nPar":9},"geometry":{"type":"Point","coordinates":[-59.389449,-34.473429]}},{"type":"Feature","properties":{"id":"GI-203","act":"Galpón","tipo":"B","zona":"CAgr-S2","partida":null,"tpa":null,"fund":"Fuera del anillo urbano y dentro de zona CAgr-S2, incluida en el Tipo B.","obs":[],"nPar":9},"geometry":{"type":"Point","coordinates":[-59.389326,-34.473632]}},{"type":"Feature","properties":{"id":"GI-204","act":"Galpón","tipo":"B","zona":"CAgr-S1","partida":null,"tpa":null,"fund":"Fuera del anillo urbano y dentro de zona CAgr-S1, incluida en el Tipo B.","obs":[],"nPar":9},"geometry":{"type":"Point","coordinates":[-59.379214,-34.473442]}},{"type":"Feature","properties":{"id":"GI-205","act":"Galpón","tipo":"A","zona":"R","partida":"094000197","tpa":"Rural","fund":"Dentro del anillo de 1.000 m del Área Urbana.","obs":[],"nPar":3},"geometry":{"type":"Point","coordinates":[-59.352449,-34.502795]}},{"type":"Feature","properties":{"id":"GI-206","act":"Galpón","tipo":"A","zona":"R","partida":"094000197","tpa":"Rural","fund":"Dentro del anillo de 1.000 m del Área Urbana.","obs":[],"nPar":3},"geometry":{"type":"Point","coordinates":[-59.351858,-34.50283]}},{"type":"Feature","properties":{"id":"GI-207","act":"Galpón","tipo":"A","zona":"R","partida":"094000197","tpa":"Rural","fund":"Dentro del anillo de 1.000 m del Área Urbana.","obs":[],"nPar":3},"geometry":{"type":"Point","coordinates":[-59.351869,-34.503131]}},{"type":"Feature","properties":{"id":"GI-208","act":"Horno","tipo":"X","zona":"R","partida":"094001683","tpa":"Rural","fund":"Horno (ladrillería): actividad intensiva no ganadera. No integra el régimen GI2.","obs":[],"nPar":1},"geometry":{"type":"Point","coordinates":[-59.348508,-34.500041]}},{"type":"Feature","properties":{"id":"GI-209","act":"Horno","tipo":"X","zona":"CM-S4","partida":"094003716","tpa":"Rural","fund":"Horno (ladrillería): actividad intensiva no ganadera. No integra el régimen GI2.","obs":[],"nPar":1},"geometry":{"type":"Point","coordinates":[-59.341137,-34.500062]}},{"type":"Feature","properties":{"id":"GI-210","act":"Galpón","tipo":"B","zona":"CM-S4","partida":"094001117","tpa":"Rural","fund":"Fuera del anillo urbano y dentro de zona CM-S4, incluida en el Tipo B.","obs":[],"nPar":3},"geometry":{"type":"Point","coordinates":[-59.278515,-34.434451]}},{"type":"Feature","properties":{"id":"GI-211","act":"Galpón","tipo":"B","zona":"CM-S4","partida":"094001117","tpa":"Rural","fund":"Fuera del anillo urbano y dentro de zona CM-S4, incluida en el Tipo B.","obs":[],"nPar":3},"geometry":{"type":"Point","coordinates":[-59.279523,-34.43431]}},{"type":"Feature","properties":{"id":"GI-212","act":"Galpón","tipo":"B","zona":"CM-S4","partida":"094001117","tpa":"Rural","fund":"Fuera del anillo urbano y dentro de zona CM-S4, incluida en el Tipo B.","obs":[],"nPar":3},"geometry":{"type":"Point","coordinates":[-59.278488,-34.435221]}},{"type":"Feature","properties":{"id":"GI-213","act":"Horno","tipo":"X","zona":"CM-S4","partida":"094008021","tpa":"Rural","fund":"Horno (ladrillería): actividad intensiva no ganadera. No integra el régimen GI2.","obs":[],"nPar":1},"geometry":{"type":"Point","coordinates":[-59.351379,-34.44136]}},{"type":"Feature","properties":{"id":"GI-214","act":"Horno","tipo":"X","zona":"CRA","partida":"094007532","tpa":"Rural","fund":"Horno (ladrillería): actividad intensiva no ganadera. No integra el régimen GI2.","obs":[],"nPar":1},"geometry":{"type":"Point","coordinates":[-59.353208,-34.439188]}},{"type":"Feature","properties":{"id":"GI-215","act":"Horno","tipo":"X","zona":"R","partida":"094000424","tpa":"Rural","fund":"Horno (ladrillería): actividad intensiva no ganadera. No integra el régimen GI2.","obs":[],"nPar":2},"geometry":{"type":"Point","coordinates":[-59.356738,-34.436011]}},{"type":"Feature","properties":{"id":"GI-216","act":"Horno","tipo":"X","zona":"R","partida":"094005765","tpa":"Rural","fund":"Horno (ladrillería): actividad intensiva no ganadera. No integra el régimen GI2.","obs":[],"nPar":1},"geometry":{"type":"Point","coordinates":[-59.350365,-34.435277]}},{"type":"Feature","properties":{"id":"GI-217","act":"Horno","tipo":"X","zona":"R","partida":"094000424","tpa":"Rural","fund":"Horno (ladrillería): actividad intensiva no ganadera. No integra el régimen GI2.","obs":[],"nPar":2},"geometry":{"type":"Point","coordinates":[-59.354388,-34.435436]}},{"type":"Feature","properties":{"id":"GI-218","act":"Horno","tipo":"X","zona":"R","partida":"094000850","tpa":"Rural","fund":"Horno (ladrillería): actividad intensiva no ganadera. No integra el régimen GI2.","obs":[],"nPar":1},"geometry":{"type":"Point","coordinates":[-59.354903,-34.433516]}},{"type":"Feature","properties":{"id":"GI-219","act":"Horno","tipo":"X","zona":"R","partida":"094010722","tpa":"Rural","fund":"Horno (ladrillería): actividad intensiva no ganadera. No integra el régimen GI2.","obs":[],"nPar":1},"geometry":{"type":"Point","coordinates":[-59.341008,-34.435832]}},{"type":"Feature","properties":{"id":"GI-220","act":"Horno","tipo":"X","zona":"R","partida":"094001468","tpa":"Rural","fund":"Horno (ladrillería): actividad intensiva no ganadera. No integra el régimen GI2.","obs":[],"nPar":1},"geometry":{"type":"Point","coordinates":[-59.336534,-34.43453]}},{"type":"Feature","properties":{"id":"GI-221","act":"Horno","tipo":"X","zona":"CM-S4","partida":"094009899","tpa":"Rural","fund":"Horno (ladrillería): actividad intensiva no ganadera. No integra el régimen GI2.","obs":[],"nPar":1},"geometry":{"type":"Point","coordinates":[-59.362872,-34.43896]}},{"type":"Feature","properties":{"id":"GI-222","act":"Galpón","tipo":"A","zona":"CM-S4","partida":"094003620","tpa":"Rural","fund":"Dentro del anillo de 1.000 m del Área Urbana.","obs":[],"nPar":3},"geometry":{"type":"Point","coordinates":[-59.369137,-34.446558]}},{"type":"Feature","properties":{"id":"GI-223","act":"Galpón","tipo":"A","zona":"CM-S4","partida":"094003620","tpa":"Rural","fund":"Dentro del anillo de 1.000 m del Área Urbana.","obs":[],"nPar":3},"geometry":{"type":"Point","coordinates":[-59.368939,-34.446673]}},{"type":"Feature","properties":{"id":"GI-224","act":"Galpón","tipo":"A","zona":"CM-S4","partida":"094003620","tpa":"Rural","fund":"Dentro del anillo de 1.000 m del Área Urbana.","obs":[],"nPar":3},"geometry":{"type":"Point","coordinates":[-59.368789,-34.446854]}},{"type":"Feature","properties":{"id":"GI-225","act":"Galpón","tipo":"C","zona":"R","partida":null,"tpa":null,"fund":"Fuera de las zonas del Tipo B, dentro del anillo de 1.000 m que las rodea (zona R).","obs":[],"nPar":9},"geometry":{"type":"Point","coordinates":[-59.398948,-34.432517]}},{"type":"Feature","properties":{"id":"GI-226","act":"Galpón","tipo":"A","zona":"PUN-S1","partida":"094010763","tpa":"Rural","fund":"Dentro del anillo de 1.000 m del Área Urbana.","obs":[],"nPar":1},"geometry":{"type":"Point","coordinates":[-59.463621,-34.442771]}},{"type":"Feature","properties":{"id":"GI-227","act":"Galpón","tipo":"A","zona":"CM-S3","partida":"094011635","tpa":"Rural","fund":"Dentro del anillo de 1.000 m del Área Urbana.","obs":[],"nPar":3},"geometry":{"type":"Point","coordinates":[-59.463911,-34.442326]}},{"type":"Feature","properties":{"id":"GI-228","act":"Galpón","tipo":"A","zona":"CM-S3","partida":"094011635","tpa":"Rural","fund":"Dentro del anillo de 1.000 m del Área Urbana.","obs":[],"nPar":3},"geometry":{"type":"Point","coordinates":[-59.463801,-34.442579]}},{"type":"Feature","properties":{"id":"GI-229","act":"Galpón","tipo":"A","zona":"CM-S3","partida":"094011635","tpa":"Rural","fund":"Dentro del anillo de 1.000 m del Área Urbana.","obs":[],"nPar":3},"geometry":{"type":"Point","coordinates":[-59.464359,-34.44195]}},{"type":"Feature","properties":{"id":"GI-230","act":"Galpón","tipo":"A","zona":"CM-S3","partida":"094010762","tpa":"Rural","fund":"Dentro del anillo de 1.000 m del Área Urbana.","obs":[],"nPar":3},"geometry":{"type":"Point","coordinates":[-59.464936,-34.441676]}},{"type":"Feature","properties":{"id":"GI-231","act":"Galpón","tipo":"A","zona":"CM-S3","partida":"094010762","tpa":"Rural","fund":"Dentro del anillo de 1.000 m del Área Urbana.","obs":[],"nPar":3},"geometry":{"type":"Point","coordinates":[-59.464619,-34.441745]}},{"type":"Feature","properties":{"id":"GI-232","act":"Galpón","tipo":"A","zona":"CM-S3","partida":"094010762","tpa":"Rural","fund":"Dentro del anillo de 1.000 m del Área Urbana.","obs":[],"nPar":3},"geometry":{"type":"Point","coordinates":[-59.465087,-34.441429]}},{"type":"Feature","properties":{"id":"GI-233","act":"Galpón","tipo":"A","zona":"R","partida":"094011634","tpa":"Rural","fund":"Dentro del anillo de 1.000 m del Área Urbana.","obs":[],"nPar":2},"geometry":{"type":"Point","coordinates":[-59.46759,-34.442067]}},{"type":"Feature","properties":{"id":"GI-234","act":"Galpón","tipo":"A","zona":"R","partida":"094011634","tpa":"Rural","fund":"Dentro del anillo de 1.000 m del Área Urbana.","obs":[],"nPar":2},"geometry":{"type":"Point","coordinates":[-59.467292,-34.442244]}},{"type":"Feature","properties":{"id":"GI-235","act":"Galpón","tipo":"A","zona":"R","partida":"094008415","tpa":"Rural","fund":"Dentro del anillo de 1.000 m del Área Urbana.","obs":[],"nPar":3},"geometry":{"type":"Point","coordinates":[-59.469211,-34.440328]}},{"type":"Feature","properties":{"id":"GI-236","act":"Galpón","tipo":"A","zona":"R","partida":"094008415","tpa":"Rural","fund":"Dentro del anillo de 1.000 m del Área Urbana.","obs":[],"nPar":3},"geometry":{"type":"Point","coordinates":[-59.468583,-34.440487]}},{"type":"Feature","properties":{"id":"GI-237","act":"Galpón","tipo":"A","zona":"R","partida":"094008415","tpa":"Rural","fund":"Dentro del anillo de 1.000 m del Área Urbana.","obs":[],"nPar":3},"geometry":{"type":"Point","coordinates":[-59.468304,-34.440045]}},{"type":"Feature","properties":{"id":"GI-238","act":"Galpón","tipo":"C","zona":"RFR","partida":"094009680","tpa":"Rural","fund":"Fuera de las zonas del Tipo B, dentro del anillo de 1.000 m que las rodea (zona RFR).","obs":[],"nPar":2},"geometry":{"type":"Point","coordinates":[-59.472551,-34.426087]}},{"type":"Feature","properties":{"id":"GI-239","act":"Galpón","tipo":"C","zona":"RFR","partida":"094009680","tpa":"Rural","fund":"Fuera de las zonas del Tipo B, dentro del anillo de 1.000 m que las rodea (zona RFR).","obs":[],"nPar":2},"geometry":{"type":"Point","coordinates":[-59.472133,-34.426375]}},{"type":"Feature","properties":{"id":"GI-240","act":"Galpón","tipo":"C","zona":"R","partida":"094011802","tpa":"Urbano","fund":"Fuera de las zonas del Tipo B, dentro del anillo de 1.000 m que las rodea (zona R).","obs":[],"nPar":1},"geometry":{"type":"Point","coordinates":[-59.47172,-34.426361]}},{"type":"Feature","properties":{"id":"GI-241","act":"Galpón","tipo":"C","zona":"RFR","partida":"094009902","tpa":"Rural","fund":"Fuera de las zonas del Tipo B, dentro del anillo de 1.000 m que las rodea (zona RFR).","obs":[],"nPar":3},"geometry":{"type":"Point","coordinates":[-59.47136,-34.413961]}},{"type":"Feature","properties":{"id":"GI-242","act":"Galpón","tipo":"C","zona":"RFR","partida":"094009902","tpa":"Rural","fund":"Fuera de las zonas del Tipo B, dentro del anillo de 1.000 m que las rodea (zona RFR).","obs":[],"nPar":3},"geometry":{"type":"Point","coordinates":[-59.471419,-34.413571]}},{"type":"Feature","properties":{"id":"GI-243","act":"Galpón","tipo":"C","zona":"RFR","partida":"094009902","tpa":"Rural","fund":"Fuera de las zonas del Tipo B, dentro del anillo de 1.000 m que las rodea (zona RFR).","obs":[],"nPar":3},"geometry":{"type":"Point","coordinates":[-59.471274,-34.414279]}},{"type":"Feature","properties":{"id":"GI-244","act":"Galpón","tipo":"B","zona":"SR-S2","partida":"094005750","tpa":"Rural","fund":"Fuera del anillo urbano y dentro de zona SR-S2, incluida en el Tipo B.","obs":[],"nPar":4},"geometry":{"type":"Point","coordinates":[-59.480203,-34.459246]}},{"type":"Feature","properties":{"id":"GI-245","act":"Galpón","tipo":"B","zona":"SR-S2","partida":"094005750","tpa":"Rural","fund":"Fuera del anillo urbano y dentro de zona SR-S2, incluida en el Tipo B.","obs":[],"nPar":4},"geometry":{"type":"Point","coordinates":[-59.480144,-34.458853]}},{"type":"Feature","properties":{"id":"GI-246","act":"Galpón","tipo":"B","zona":"SR-S2","partida":"094005750","tpa":"Rural","fund":"Fuera del anillo urbano y dentro de zona SR-S2, incluida en el Tipo B.","obs":[],"nPar":4},"geometry":{"type":"Point","coordinates":[-59.479774,-34.458729]}},{"type":"Feature","properties":{"id":"GI-247","act":"Galpón","tipo":"C","zona":"RFR","partida":"094005176","tpa":"Rural","fund":"Fuera de las zonas del Tipo B, dentro del anillo de 1.000 m que las rodea (zona RFR).","obs":[],"nPar":9},"geometry":{"type":"Point","coordinates":[-59.284234,-34.309793]}},{"type":"Feature","properties":{"id":"GI-248","act":"Galpón","tipo":"C","zona":"RFR","partida":"094005176","tpa":"Rural","fund":"Fuera de las zonas del Tipo B, dentro del anillo de 1.000 m que las rodea (zona RFR).","obs":[],"nPar":9},"geometry":{"type":"Point","coordinates":[-59.284427,-34.309717]}},{"type":"Feature","properties":{"id":"GI-249","act":"Galpón","tipo":"C","zona":"RFR","partida":"094005176","tpa":"Rural","fund":"Fuera de las zonas del Tipo B, dentro del anillo de 1.000 m que las rodea (zona RFR).","obs":[],"nPar":9},"geometry":{"type":"Point","coordinates":[-59.284604,-34.309673]}},{"type":"Feature","properties":{"id":"GI-250","act":"Galpón","tipo":"C","zona":"RFR","partida":"094005176","tpa":"Rural","fund":"Fuera de las zonas del Tipo B, dentro del anillo de 1.000 m que las rodea (zona RFR).","obs":[],"nPar":9},"geometry":{"type":"Point","coordinates":[-59.284792,-34.309633]}},{"type":"Feature","properties":{"id":"GI-251","act":"Galpón","tipo":"C","zona":"RFR","partida":"094005176","tpa":"Rural","fund":"Fuera de las zonas del Tipo B, dentro del anillo de 1.000 m que las rodea (zona RFR).","obs":[],"nPar":9},"geometry":{"type":"Point","coordinates":[-59.284464,-34.310214]}},{"type":"Feature","properties":{"id":"GI-252","act":"Galpón","tipo":"C","zona":"RFR","partida":"094005176","tpa":"Rural","fund":"Fuera de las zonas del Tipo B, dentro del anillo de 1.000 m que las rodea (zona RFR).","obs":[],"nPar":9},"geometry":{"type":"Point","coordinates":[-59.284657,-34.310138]}},{"type":"Feature","properties":{"id":"GI-253","act":"Galpón","tipo":"C","zona":"RFR","partida":"094005176","tpa":"Rural","fund":"Fuera de las zonas del Tipo B, dentro del anillo de 1.000 m que las rodea (zona RFR).","obs":[],"nPar":9},"geometry":{"type":"Point","coordinates":[-59.284818,-34.310081]}},{"type":"Feature","properties":{"id":"GI-254","act":"Galpón","tipo":"C","zona":"RFR","partida":"094005176","tpa":"Rural","fund":"Fuera de las zonas del Tipo B, dentro del anillo de 1.000 m que las rodea (zona RFR).","obs":[],"nPar":9},"geometry":{"type":"Point","coordinates":[-59.285017,-34.310058]}},{"type":"Feature","properties":{"id":"GI-255","act":"Galpón","tipo":"C","zona":"RFR","partida":"094005176","tpa":"Rural","fund":"Fuera de las zonas del Tipo B, dentro del anillo de 1.000 m que las rodea (zona RFR).","obs":[],"nPar":9},"geometry":{"type":"Point","coordinates":[-59.285156,-34.309988]}},{"type":"Feature","properties":{"id":"GI-256","act":"Galpón","tipo":"A","zona":"RU","partida":"094001557","tpa":"Rural","fund":"Dentro del anillo de 1.000 m del Área Urbana.","obs":[],"nPar":1},"geometry":{"type":"Point","coordinates":[-59.24559,-34.442109]}},{"type":"Feature","properties":{"id":"GI-257","act":"Galpón","tipo":"A","zona":"DBC1-2","partida":"094008916","tpa":"Rural","fund":"Dentro del anillo de 1.000 m del Área Urbana.","obs":[],"nPar":1},"geometry":{"type":"Point","coordinates":[-59.247553,-34.445393]}},{"type":"Feature","properties":{"id":"GI-258","act":"Galpón","tipo":"A","zona":"CAgr-S2","partida":"094010319","tpa":"Rural","fund":"Dentro del anillo de 1.000 m del Área Urbana.","obs":[],"nPar":4},"geometry":{"type":"Point","coordinates":[-59.432744,-34.438713]}},{"type":"Feature","properties":{"id":"GI-259","act":"Galpón","tipo":"A","zona":"CAgr-S2","partida":"094010319","tpa":"Rural","fund":"Dentro del anillo de 1.000 m del Área Urbana.","obs":[],"nPar":4},"geometry":{"type":"Point","coordinates":[-59.432998,-34.43887]}},{"type":"Feature","properties":{"id":"GI-260","act":"Galpón","tipo":"A","zona":"CAgr-S2","partida":"094010319","tpa":"Rural","fund":"Dentro del anillo de 1.000 m del Área Urbana.","obs":[],"nPar":4},"geometry":{"type":"Point","coordinates":[-59.433267,-34.439074]}},{"type":"Feature","properties":{"id":"GI-261","act":"Galpón","tipo":"A","zona":"CAgr-S2","partida":"094010319","tpa":"Rural","fund":"Dentro del anillo de 1.000 m del Área Urbana.","obs":[],"nPar":4},"geometry":{"type":"Point","coordinates":[-59.433138,-34.439383]}},{"type":"Feature","properties":{"id":"GI-262","act":"Galpón","tipo":"A","zona":"CAgr-S2","partida":"094013149","tpa":"Rural","fund":"Dentro del anillo de 1.000 m del Área Urbana.","obs":[],"nPar":4},"geometry":{"type":"Point","coordinates":[-59.430187,-34.439879]}},{"type":"Feature","properties":{"id":"GI-263","act":"Galpón","tipo":"A","zona":"CAgr-S2","partida":"094013149","tpa":"Rural","fund":"Dentro del anillo de 1.000 m del Área Urbana.","obs":[],"nPar":4},"geometry":{"type":"Point","coordinates":[-59.429619,-34.439737]}},{"type":"Feature","properties":{"id":"GI-264","act":"Galpón","tipo":"A","zona":"CAgr-S2","partida":"094013149","tpa":"Rural","fund":"Dentro del anillo de 1.000 m del Área Urbana.","obs":[],"nPar":4},"geometry":{"type":"Point","coordinates":[-59.430316,-34.440312]}},{"type":"Feature","properties":{"id":"GI-265","act":"Galpón","tipo":"A","zona":"CAgr-S2","partida":"094013149","tpa":"Rural","fund":"Dentro del anillo de 1.000 m del Área Urbana.","obs":[],"nPar":4},"geometry":{"type":"Point","coordinates":[-59.430488,-34.440162]}},{"type":"Feature","properties":{"id":"GI-266","act":"Galpón","tipo":"A","zona":"CAgr-S2","partida":"094012236","tpa":"Rural","fund":"Dentro del anillo de 1.000 m del Área Urbana.","obs":[],"nPar":2},"geometry":{"type":"Point","coordinates":[-59.434601,-34.438529]}},{"type":"Feature","properties":{"id":"GI-267","act":"Galpón","tipo":"A","zona":"CAgr-S2","partida":"094012236","tpa":"Rural","fund":"Dentro del anillo de 1.000 m del Área Urbana.","obs":[],"nPar":2},"geometry":{"type":"Point","coordinates":[-59.435083,-34.438971]}},{"type":"Feature","properties":{"id":"GI-268","act":"Galpón","tipo":"A","zona":"CAgr-S2","partida":"094001059","tpa":"Rural","fund":"Dentro del anillo de 1.000 m del Área Urbana.","obs":[],"nPar":2},"geometry":{"type":"Point","coordinates":[-59.434016,-34.438732]}},{"type":"Feature","properties":{"id":"GI-269","act":"Galpón","tipo":"A","zona":"CAgr-S2","partida":"094001059","tpa":"Rural","fund":"Dentro del anillo de 1.000 m del Área Urbana.","obs":[],"nPar":2},"geometry":{"type":"Point","coordinates":[-59.433726,-34.438852]}},{"type":"Feature","properties":{"id":"GI-270","act":"Galpón","tipo":"B","zona":"SR-S3","partida":"094008858","tpa":"Rural","fund":"Fuera del anillo urbano y dentro de zona SR-S3, incluida en el Tipo B.","obs":[],"nPar":3},"geometry":{"type":"Point","coordinates":[-59.398982,-34.463187]}},{"type":"Feature","properties":{"id":"GI-271","act":"Galpón","tipo":"B","zona":"SR-S3","partida":"094008858","tpa":"Rural","fund":"Fuera del anillo urbano y dentro de zona SR-S3, incluida en el Tipo B.","obs":[],"nPar":3},"geometry":{"type":"Point","coordinates":[-59.398622,-34.463315]}},{"type":"Feature","properties":{"id":"GI-272","act":"Galpón","tipo":"B","zona":"SR-S3","partida":"094008858","tpa":"Rural","fund":"Fuera del anillo urbano y dentro de zona SR-S3, incluida en el Tipo B.","obs":[],"nPar":3},"geometry":{"type":"Point","coordinates":[-59.398338,-34.463302]}},{"type":"Feature","properties":{"id":"GI-273","act":"Galpón","tipo":"B","zona":"CAgr-S1","partida":"094010157","tpa":"Rural","fund":"Fuera del anillo urbano y dentro de zona CAgr-S1, incluida en el Tipo B.","obs":[],"nPar":3},"geometry":{"type":"Point","coordinates":[-59.388576,-34.465632]}},{"type":"Feature","properties":{"id":"GI-274","act":"Galpón","tipo":"B","zona":"CAgr-S1","partida":"094010157","tpa":"Rural","fund":"Fuera del anillo urbano y dentro de zona CAgr-S1, incluida en el Tipo B.","obs":[],"nPar":3},"geometry":{"type":"Point","coordinates":[-59.388383,-34.465937]}},{"type":"Feature","properties":{"id":"GI-275","act":"Galpón","tipo":"B","zona":"CAgr-S1","partida":"094010157","tpa":"Rural","fund":"Fuera del anillo urbano y dentro de zona CAgr-S1, incluida en el Tipo B.","obs":[],"nPar":3},"geometry":{"type":"Point","coordinates":[-59.388082,-34.46618]}},{"type":"Feature","properties":{"id":"GI-276","act":"Galpón","tipo":"B","zona":"CAgr-S1","partida":"094005817","tpa":"Rural","fund":"Fuera del anillo urbano y dentro de zona CAgr-S1, incluida en el Tipo B.","obs":[],"nPar":1},"geometry":{"type":"Point","coordinates":[-59.387522,-34.467193]}},{"type":"Feature","properties":{"id":"GI-277","act":"Galpón","tipo":"B","zona":"CAgr-S1","partida":"094012542","tpa":"Rural","fund":"Fuera del anillo urbano y dentro de zona CAgr-S1, incluida en el Tipo B.","obs":[],"nPar":2},"geometry":{"type":"Point","coordinates":[-59.386954,-34.466941]}},{"type":"Feature","properties":{"id":"GI-278","act":"Galpón","tipo":"B","zona":"CAgr-S1","partida":"094012542","tpa":"Rural","fund":"Fuera del anillo urbano y dentro de zona CAgr-S1, incluida en el Tipo B.","obs":[],"nPar":2},"geometry":{"type":"Point","coordinates":[-59.386669,-34.467224]}},{"type":"Feature","properties":{"id":"GI-279","act":"Galpón","tipo":"B","zona":"CAgr-S1","partida":"094000267","tpa":"Rural","fund":"Fuera del anillo urbano y dentro de zona CAgr-S1, incluida en el Tipo B.","obs":[],"nPar":1},"geometry":{"type":"Point","coordinates":[-59.386321,-34.467255]}},{"type":"Feature","properties":{"id":"GI-280","act":"Galpón","tipo":"B","zona":"CAgr-S1","partida":"094005811","tpa":"Rural","fund":"Fuera del anillo urbano y dentro de zona CAgr-S1, incluida en el Tipo B.","obs":[],"nPar":1},"geometry":{"type":"Point","coordinates":[-59.387399,-34.468051]}},{"type":"Feature","properties":{"id":"GI-281","act":"Galpón","tipo":"C","zona":"R","partida":"094001444","tpa":"Rural","fund":"Fuera de las zonas del Tipo B, dentro del anillo de 1.000 m que las rodea (zona R).","obs":[],"nPar":2},"geometry":{"type":"Point","coordinates":[-59.369364,-34.504179]}},{"type":"Feature","properties":{"id":"GI-282","act":"Galpón","tipo":"C","zona":"R","partida":"094001444","tpa":"Rural","fund":"Fuera de las zonas del Tipo B, dentro del anillo de 1.000 m que las rodea (zona R).","obs":[],"nPar":2},"geometry":{"type":"Point","coordinates":[-59.369799,-34.50409]}},{"type":"Feature","properties":{"id":"GI-283","act":"Galpón","tipo":"C","zona":"R","partida":"094001234","tpa":"Rural","fund":"Fuera de las zonas del Tipo B, dentro del anillo de 1.000 m que las rodea (zona R).","obs":[],"nPar":4},"geometry":{"type":"Point","coordinates":[-59.411942,-34.47937]}},{"type":"Feature","properties":{"id":"GI-284","act":"Galpón","tipo":"C","zona":"R","partida":"094001234","tpa":"Rural","fund":"Fuera de las zonas del Tipo B, dentro del anillo de 1.000 m que las rodea (zona R).","obs":[],"nPar":4},"geometry":{"type":"Point","coordinates":[-59.412285,-34.479591]}},{"type":"Feature","properties":{"id":"GI-285","act":"Galpón","tipo":"C","zona":"R","partida":"094001234","tpa":"Rural","fund":"Fuera de las zonas del Tipo B, dentro del anillo de 1.000 m que las rodea (zona R).","obs":[],"nPar":4},"geometry":{"type":"Point","coordinates":[-59.412832,-34.479865]}},{"type":"Feature","properties":{"id":"GI-286","act":"Galpón","tipo":"C","zona":"R","partida":"094001234","tpa":"Rural","fund":"Fuera de las zonas del Tipo B, dentro del anillo de 1.000 m que las rodea (zona R).","obs":[],"nPar":4},"geometry":{"type":"Point","coordinates":[-59.41324,-34.480077]}},{"type":"Feature","properties":{"id":"GI-287","act":"Galpón","tipo":"B","zona":"CAgr-S2","partida":"094010042","tpa":"Rural","fund":"Fuera del anillo urbano y dentro de zona CAgr-S2, incluida en el Tipo B.","obs":[],"nPar":2},"geometry":{"type":"Point","coordinates":[-59.407053,-34.468411]}},{"type":"Feature","properties":{"id":"GI-288","act":"Galpón","tipo":"B","zona":"CAgr-S2","partida":"094010042","tpa":"Rural","fund":"Fuera del anillo urbano y dentro de zona CAgr-S2, incluida en el Tipo B.","obs":[],"nPar":2},"geometry":{"type":"Point","coordinates":[-59.407514,-34.468172]}},{"type":"Feature","properties":{"id":"GI-289","act":"Galpón","tipo":"B","zona":"CAgr-S2","partida":"094010041","tpa":"Rural","fund":"Fuera del anillo urbano y dentro de zona CAgr-S2, incluida en el Tipo B.","obs":[],"nPar":1},"geometry":{"type":"Point","coordinates":[-59.408056,-34.467703]}},{"type":"Feature","properties":{"id":"GI-290","act":"Feedlot","tipo":"C","zona":"R","partida":"094009298","tpa":"Rural","fund":"Fuera de las zonas del Tipo B, dentro del anillo de 1.000 m que las rodea (zona R).","obs":[],"nPar":1},"geometry":{"type":"Point","coordinates":[-59.357203,-34.338036]}},{"type":"Feature","properties":{"id":"GI-291","act":"Galpón","tipo":"C","zona":"R","partida":"094001010","tpa":"Rural","fund":"Fuera de las zonas del Tipo B, dentro del anillo de 1.000 m que las rodea (zona R).","obs":[],"nPar":2},"geometry":{"type":"Point","coordinates":[-59.366162,-34.338116]}},{"type":"Feature","properties":{"id":"GI-292","act":"Galpón","tipo":"C","zona":"R","partida":"094001010","tpa":"Rural","fund":"Fuera de las zonas del Tipo B, dentro del anillo de 1.000 m que las rodea (zona R).","obs":[],"nPar":2},"geometry":{"type":"Point","coordinates":[-59.366205,-34.3384]}},{"type":"Feature","properties":{"id":"GI-293","act":"Galpón","tipo":"A","zona":"R","partida":"094007660","tpa":"Rural","fund":"Dentro del anillo de 1.000 m del Área Urbana.","obs":["Punto relevado sin carpeta de origen en el archivo 2021."],"nPar":4},"geometry":{"type":"Point","coordinates":[-59.460328,-34.430615]}},{"type":"Feature","properties":{"id":"GI-294","act":"Galpón","tipo":"A","zona":"R","partida":"094007660","tpa":"Rural","fund":"Dentro del anillo de 1.000 m del Área Urbana.","obs":["Punto relevado sin carpeta de origen en el archivo 2021."],"nPar":4},"geometry":{"type":"Point","coordinates":[-59.460206,-34.430743]}},{"type":"Feature","properties":{"id":"GI-295","act":"Galpón","tipo":"A","zona":"R","partida":"094007660","tpa":"Rural","fund":"Dentro del anillo de 1.000 m del Área Urbana.","obs":["Punto relevado sin carpeta de origen en el archivo 2021."],"nPar":4},"geometry":{"type":"Point","coordinates":[-59.459504,-34.42981]}},{"type":"Feature","properties":{"id":"GI-296","act":"Galpón","tipo":"A","zona":"R","partida":"094007660","tpa":"Rural","fund":"Dentro del anillo de 1.000 m del Área Urbana.","obs":["Punto relevado sin carpeta de origen en el archivo 2021."],"nPar":4},"geometry":{"type":"Point","coordinates":[-59.459348,-34.429966]}},{"type":"Feature","properties":{"id":"GI-297","act":"Galpón","tipo":"C","zona":"R","partida":"094010597","tpa":"Rural","fund":"Fuera de las zonas del Tipo B, dentro del anillo de 1.000 m que las rodea (zona R).","obs":["Punto relevado sin carpeta de origen en el archivo 2021.","El punto cae fuera de parcela (probablemente sobre calle o camino). Se tomó la parcela más cercana."],"nPar":1},"geometry":{"type":"Point","coordinates":[-59.463644,-34.422908]}},{"type":"Feature","properties":{"id":"GI-298","act":"Galpón","tipo":"C","zona":"R","partida":"094010596","tpa":"Rural","fund":"Fuera de las zonas del Tipo B, dentro del anillo de 1.000 m que las rodea (zona R).","obs":["Punto relevado sin carpeta de origen en el archivo 2021."],"nPar":3},"geometry":{"type":"Point","coordinates":[-59.463636,-34.421894]}},{"type":"Feature","properties":{"id":"GI-299","act":"Galpón","tipo":"C","zona":"R","partida":"094010596","tpa":"Rural","fund":"Fuera de las zonas del Tipo B, dentro del anillo de 1.000 m que las rodea (zona R).","obs":["Punto relevado sin carpeta de origen en el archivo 2021."],"nPar":3},"geometry":{"type":"Point","coordinates":[-59.463807,-34.422109]}},{"type":"Feature","properties":{"id":"GI-300","act":"Galpón","tipo":"C","zona":"R","partida":"094010596","tpa":"Rural","fund":"Fuera de las zonas del Tipo B, dentro del anillo de 1.000 m que las rodea (zona R).","obs":["Punto relevado sin carpeta de origen en el archivo 2021."],"nPar":3},"geometry":{"type":"Point","coordinates":[-59.464037,-34.422289]}},{"type":"Feature","properties":{"id":"GI-301","act":"Galpón","tipo":"C","zona":"RFR","partida":"094001614","tpa":"Rural","fund":"Fuera de las zonas del Tipo B, dentro del anillo de 1.000 m que las rodea (zona RFR).","obs":[],"nPar":8},"geometry":{"type":"Point","coordinates":[-59.470293,-34.417607]}},{"type":"Feature","properties":{"id":"GI-302","act":"Galpón","tipo":"C","zona":"RFR","partida":"094001614","tpa":"Rural","fund":"Fuera de las zonas del Tipo B, dentro del anillo de 1.000 m que las rodea (zona RFR).","obs":[],"nPar":8},"geometry":{"type":"Point","coordinates":[-59.470131,-34.418518]}},{"type":"Feature","properties":{"id":"GI-303","act":"Galpón","tipo":"C","zona":"RFR","partida":"094001614","tpa":"Rural","fund":"Fuera de las zonas del Tipo B, dentro del anillo de 1.000 m que las rodea (zona RFR).","obs":[],"nPar":8},"geometry":{"type":"Point","coordinates":[-59.470247,-34.417931]}},{"type":"Feature","properties":{"id":"GI-304","act":"Galpón","tipo":"C","zona":"RFR","partida":"094001614","tpa":"Rural","fund":"Fuera de las zonas del Tipo B, dentro del anillo de 1.000 m que las rodea (zona RFR).","obs":[],"nPar":8},"geometry":{"type":"Point","coordinates":[-59.470189,-34.418231]}},{"type":"Feature","properties":{"id":"GI-305","act":"Galpón","tipo":"A","zona":"CAgr-S1","partida":"094007672","tpa":"Rural","fund":"Dentro del anillo de 1.000 m del Área Urbana.","obs":["Punto relevado sin carpeta de origen en el archivo 2021."],"nPar":1},"geometry":{"type":"Point","coordinates":[-59.452822,-34.427606]}},{"type":"Feature","properties":{"id":"GI-306","act":"Galpón","tipo":"A","zona":"CAgr-S2","partida":"094000254","tpa":"Urbano","fund":"Dentro del anillo de 1.000 m del Área Urbana.","obs":["Punto relevado sin carpeta de origen en el archivo 2021."],"nPar":3},"geometry":{"type":"Point","coordinates":[-59.426501,-34.46189]}},{"type":"Feature","properties":{"id":"GI-307","act":"Galpón","tipo":"A","zona":"CAgr-S2","partida":"094000254","tpa":"Urbano","fund":"Dentro del anillo de 1.000 m del Área Urbana.","obs":["Punto relevado sin carpeta de origen en el archivo 2021."],"nPar":3},"geometry":{"type":"Point","coordinates":[-59.426545,-34.462071]}},{"type":"Feature","properties":{"id":"GI-308","act":"Galpón","tipo":"A","zona":"CAgr-S2","partida":"094000254","tpa":"Urbano","fund":"Dentro del anillo de 1.000 m del Área Urbana.","obs":["Punto relevado sin carpeta de origen en el archivo 2021."],"nPar":3},"geometry":{"type":"Point","coordinates":[-59.426625,-34.462234]}},{"type":"Feature","properties":{"id":"GI-309","act":"Galpón","tipo":"A","zona":"CAgr-S2","partida":"094003555","tpa":"Urbano","fund":"Dentro del anillo de 1.000 m del Área Urbana.","obs":["Punto relevado sin carpeta de origen en el archivo 2021."],"nPar":3},"geometry":{"type":"Point","coordinates":[-59.426784,-34.462549]}},{"type":"Feature","properties":{"id":"GI-310","act":"Galpón","tipo":"A","zona":"CAgr-S2","partida":"094003555","tpa":"Urbano","fund":"Dentro del anillo de 1.000 m del Área Urbana.","obs":["Punto relevado sin carpeta de origen en el archivo 2021."],"nPar":3},"geometry":{"type":"Point","coordinates":[-59.426875,-34.46276]}},{"type":"Feature","properties":{"id":"GI-311","act":"Galpón","tipo":"A","zona":"CAgr-S2","partida":"094003555","tpa":"Urbano","fund":"Dentro del anillo de 1.000 m del Área Urbana.","obs":["Punto relevado sin carpeta de origen en el archivo 2021."],"nPar":3},"geometry":{"type":"Point","coordinates":[-59.426942,-34.46297]}},{"type":"Feature","properties":{"id":"GI-312","act":"Galpón","tipo":"A","zona":"CAgr-S2","partida":"094006070","tpa":"Rural","fund":"Dentro del anillo de 1.000 m del Área Urbana.","obs":["Punto relevado sin carpeta de origen en el archivo 2021."],"nPar":1},"geometry":{"type":"Point","coordinates":[-59.429299,-34.463592]}},{"type":"Feature","properties":{"id":"GI-313","act":"Galpón","tipo":"A","zona":"CAgr-S2","partida":"094006071","tpa":"Rural","fund":"Dentro del anillo de 1.000 m del Área Urbana.","obs":["Punto relevado sin carpeta de origen en el archivo 2021."],"nPar":4},"geometry":{"type":"Point","coordinates":[-59.429435,-34.463907]}},{"type":"Feature","properties":{"id":"GI-314","act":"Galpón","tipo":"A","zona":"CAgr-S2","partida":"094006071","tpa":"Rural","fund":"Dentro del anillo de 1.000 m del Área Urbana.","obs":["Punto relevado sin carpeta de origen en el archivo 2021."],"nPar":4},"geometry":{"type":"Point","coordinates":[-59.429594,-34.464242]}},{"type":"Feature","properties":{"id":"GI-315","act":"Galpón","tipo":"A","zona":"CAgr-S2","partida":"094006071","tpa":"Rural","fund":"Dentro del anillo de 1.000 m del Área Urbana.","obs":["Punto relevado sin carpeta de origen en el archivo 2021."],"nPar":4},"geometry":{"type":"Point","coordinates":[-59.429271,-34.464345]}},{"type":"Feature","properties":{"id":"GI-316","act":"Galpón","tipo":"A","zona":"CAgr-S2","partida":"094006071","tpa":"Rural","fund":"Dentro del anillo de 1.000 m del Área Urbana.","obs":["Punto relevado sin carpeta de origen en el archivo 2021."],"nPar":4},"geometry":{"type":"Point","coordinates":[-59.428913,-34.464458]}},{"type":"Feature","properties":{"id":"GI-317","act":"Galpón","tipo":"A","zona":"CAgr-S2","partida":"094006064","tpa":"Rural","fund":"Dentro del anillo de 1.000 m del Área Urbana.","obs":["Punto relevado sin carpeta de origen en el archivo 2021."],"nPar":3},"geometry":{"type":"Point","coordinates":[-59.431885,-34.461104]}},{"type":"Feature","properties":{"id":"GI-318","act":"Galpón","tipo":"A","zona":"CAgr-S2","partida":"094006064","tpa":"Rural","fund":"Dentro del anillo de 1.000 m del Área Urbana.","obs":["Punto relevado sin carpeta de origen en el archivo 2021."],"nPar":3},"geometry":{"type":"Point","coordinates":[-59.431688,-34.461208]}},{"type":"Feature","properties":{"id":"GI-319","act":"Galpón","tipo":"A","zona":"CAgr-S2","partida":"094006064","tpa":"Rural","fund":"Dentro del anillo de 1.000 m del Área Urbana.","obs":["Punto relevado sin carpeta de origen en el archivo 2021."],"nPar":3},"geometry":{"type":"Point","coordinates":[-59.432043,-34.461563]}},{"type":"Feature","properties":{"id":"GI-320","act":"Galpón","tipo":"A","zona":"CAgr-S2","partida":"094005598","tpa":"Rural","fund":"Dentro del anillo de 1.000 m del Área Urbana.","obs":["Punto relevado sin carpeta de origen en el archivo 2021."],"nPar":1},"geometry":{"type":"Point","coordinates":[-59.435942,-34.458986]}},{"type":"Feature","properties":{"id":"GI-321","act":"Galpón","tipo":"A","zona":"CAgr-S2","partida":"094006447","tpa":"Rural","fund":"Dentro del anillo de 1.000 m del Área Urbana.","obs":["Punto relevado sin carpeta de origen en el archivo 2021."],"nPar":3},"geometry":{"type":"Point","coordinates":[-59.435573,-34.459118]}},{"type":"Feature","properties":{"id":"GI-322","act":"Galpón","tipo":"A","zona":"CAgr-S2","partida":"094006447","tpa":"Rural","fund":"Dentro del anillo de 1.000 m del Área Urbana.","obs":["Punto relevado sin carpeta de origen en el archivo 2021."],"nPar":3},"geometry":{"type":"Point","coordinates":[-59.43533,-34.45926]}},{"type":"Feature","properties":{"id":"GI-323","act":"Galpón","tipo":"A","zona":"CAgr-S2","partida":"094006447","tpa":"Rural","fund":"Dentro del anillo de 1.000 m del Área Urbana.","obs":["Punto relevado sin carpeta de origen en el archivo 2021."],"nPar":3},"geometry":{"type":"Point","coordinates":[-59.435018,-34.459382]}},{"type":"Feature","properties":{"id":"GI-324","act":"Galpón","tipo":"B","zona":"CAgr-S1","partida":null,"tpa":null,"fund":"Fuera del anillo urbano y dentro de zona CAgr-S1, incluida en el Tipo B.","obs":["Punto relevado sin carpeta de origen en el archivo 2021."],"nPar":9},"geometry":{"type":"Point","coordinates":[-59.378369,-34.472978]}},{"type":"Feature","properties":{"id":"GI-325","act":"Galpón","tipo":"B","zona":"CAgr-S1","partida":null,"tpa":null,"fund":"Fuera del anillo urbano y dentro de zona CAgr-S1, incluida en el Tipo B.","obs":["Punto relevado sin carpeta de origen en el archivo 2021."],"nPar":9},"geometry":{"type":"Point","coordinates":[-59.378024,-34.472847]}},{"type":"Feature","properties":{"id":"GI-326","act":"Galpón","tipo":"B","zona":"CAgr-S1","partida":null,"tpa":null,"fund":"Fuera del anillo urbano y dentro de zona CAgr-S1, incluida en el Tipo B.","obs":["Punto relevado sin carpeta de origen en el archivo 2021."],"nPar":9},"geometry":{"type":"Point","coordinates":[-59.377731,-34.472731]}},{"type":"Feature","properties":{"id":"GI-327","act":"Galpón","tipo":"A","zona":"CM-S4","partida":"094000268","tpa":"Rural","fund":"Dentro del anillo de 1.000 m del Área Urbana.","obs":["Punto relevado sin carpeta de origen en el archivo 2021."],"nPar":2},"geometry":{"type":"Point","coordinates":[-59.36981,-34.447633]}},{"type":"Feature","properties":{"id":"GI-328","act":"Galpón","tipo":"A","zona":"CM-S4","partida":"094000268","tpa":"Rural","fund":"Dentro del anillo de 1.000 m del Área Urbana.","obs":["Punto relevado sin carpeta de origen en el archivo 2021."],"nPar":2},"geometry":{"type":"Point","coordinates":[-59.36935,-34.447511]}}]}